Name,City,Zip,County,Latitude,Longtitude,Type
A. K. SMILEY PUBLIC LIBRARY,REDLANDS,92373,San Bernardino,34.05408,-117.18396,Library
ALBANY LIBRARY,ALBANY,94706,Alameda,37.88797,-122.29299,Library
CASTRO VALLEY LIBRARY,CASTRO VALLEY,94546,Alameda,37.69298,-122.07105,Library
CENTERVILLE LIBRARY,FREMONT,94536,Alameda,37.568,-122.02226,Library
CHERRYLAND LIBRARY,HAYWARD,94541,Alameda,37.68415,-122.1121,Library
DUBLIN LIBRARY,DUBLIN,94568,Alameda,37.70278,-121.91895,Library
FREMONT MAIN LIBRARY,FREMONT,94538,Alameda,37.55082,-121.97098,Library
IRVINGTON LIBRARY,FREMONT,94538,Alameda,37.52198,-121.96477,Library
NEWARK LIBRARY,NEWARK,94560,Alameda,37.53458,-122.03038,Library
NILES LIBRARY,FREMONT,94536,Alameda,37.57603,-121.97813,Library
SAN LORENZO LIBRARY,SAN LORENZO,94580,Alameda,37.68106,-122.12595,Library
UNION CITY LIBRARY,UNION CITY,94587,Alameda,37.58811,-122.02718,Library
ALAMEDA FREE LIBRARY,ALAMEDA,94501,Alameda,37.76681,-122.24243,Library
BAY FARM ISLAND BRANCH,ALAMEDA,94502,Alameda,37.73696,-122.24155,Library
WEST END BRANCH,ALAMEDA,94501,Alameda,37.7734,-122.27366,Library
ALHAMBRA PUBLIC LIBRARY,ALHAMBRA,91801,Los Angeles,34.09307,-118.12754,Library
ALPINE COUNTY LIBRARY,MARKLEEVILLE,96120,Alpine,38.69329,-119.7823,Library
BEAR VALLEY LIBRARY STATION,BEAR VALLEY,95223,Alpine,38.46581,-120.03883,Library
ALTADENA LIBRARY DISTRICT,ALTADENA,91001,Los Angeles,34.18916,-118.13718,Library
BOB LUCAS MEMORIAL LIBRARY AND LITERACY CENTER,ALTADENA,91001,Los Angeles,34.19132,-118.15896,Library
AMADOR COUNTY LIBRARY,JACKSON,95642,Amador,38.35405,-120.77652,Library
IONE BRANCH LIBRARY,IONE,95640,Amador,38.35304,-120.93291,Library
PINE GROVE BRANCH LIBRARY,PINE GROVE,95665,Amador,38.41344,-120.65778,Library
PIONEER BRANCH LIBRARY,PIONEER,95666,Amador,38.44316,-120.55717,Library
PLYMOUTH BRANCH,PLYMOUTH,95669,Amador,38.4812,-120.8485,Library
ANAHEIM PUBLIC LIBRARY - CENTRAL,ANAHEIM,92805,Orange,33.8315,-117.91932,Library
ANAHEIM HERITAGE CENTER @ THE MUZEO,ANAHEIM,92805,Orange,33.83358,-117.91362,Library
CANYON HILLS BRANCH,ANAHEIM,92807,Orange,33.84508,-117.78544,Library
EAST ANAHEIM BRANCH,ANAHEIM,92808,Orange,33.8688,-117.74636,Library
EUCLID BRANCH,ANAHEIM,92802,Orange,33.81431,-117.94106,Library
HASKETT BRANCH,ANAHEIM,92804,Orange,33.8282,-117.97862,Library
PONDEROSA JOINT-USE LIBRARY,ANAHEIM,92802,Orange,33.79542,-117.90413,Library
SUNKIST BRANCH,ANAHEIM,92806,Orange,33.82814,-117.881,Library
ARCADIA PUBLIC LIBRARY,ARCADIA,91006,Los Angeles,34.12846,-118.03187,Library
AZUSA CITY LIBRARY,AZUSA,91702,Los Angeles,34.13481,-117.9054,Library
BANNING LIBRARY DISTRICT,BANNING,92220,Riverside,33.9291,-116.8771,Library
BEAUMONT LIBRARY DISTRICT,BEAUMONT,92223,Riverside,33.93201,-116.9811,Library
BELVEDERE-TIBURON LIBRARY,TIBURON,94920,Marin,37.87709,-122.46145,Library
BENICIA PUBLIC LIBRARY,BENICIA,94510,Solano,38.0534,-122.15447,Library
BERKELEY PUBLIC LIBRARY - CENTRAL,BERKELEY,94704,Alameda,37.8682,-122.26849,Library
CLAREMONT BRANCH LIBRARY,BERKELEY,94705,Alameda,37.85663,-122.25436,Library
NORTH BRANCH LIBRARY,BERKELEY,94707,Alameda,37.88545,-122.27545,Library
SOUTH BRANCH LIBRARY,BERKELEY,94703,Alameda,37.8564,-122.27093,Library
WEST BRANCH LIBRARY,BERKELEY,94702,Alameda,37.86956,-122.29091,Library
BEVERLY HILLS PUBLIC LIBRARY,BEVERLY HILLS,90210,Los Angeles,34.07305,-118.39938,Library
ROXBURY BOOK NOOK,BEVERLY HILLS,90212,Los Angeles,34.05857,-118.40614,Library
BLANCHARD COMMUNITY LIBRARY,SANTA PAULA,93060,Ventura,34.35382,-119.06408,Library
BRAWLEY PUBLIC LIBRARY,BRAWLEY,92227,Imperial,32.97843,-115.53481,Library
DEL RIO BRANCH,BRAWLEY,92227,Imperial,32.97574,-115.51728,Library
BUENA PARK LIBRARY DISTRICT,BUENA PARK,90620,Orange,33.8461,-118.00845,Library
BUENA VISTA BRANCH,BURBANK,91505,Los Angeles,34.16413,-118.33021,Library
BURBANK PUBLIC LIBRARY,BURBANK,91502,Los Angeles,34.18382,-118.30647,Library
NORTHWEST BRANCH,BURBANK,91505,Los Angeles,34.18509,-118.34752,Library
BURLINGAME MAIN LIBRARY,BURLINGAME,94010,San Mateo,37.57924,-122.34928,Library
EASTON BRANCH,BURLINGAME,94010,San Mateo,37.58393,-122.37157,Library
BIGGS BRANCH,BIGGS,95917,Butte,39.4135,-121.71032,Library
OROVILLE BRANCH,OROVILLE,95966,Butte,39.50647,-121.55279,Library
CHICO BRANCH,CHICO,95926,Butte,39.74383,-121.83411,Library
DURHAM BRANCH,DURHAM,95938,Butte,39.64898,-121.80951,Library
GRIDLEY BRANCH,GRIDLEY,95948,Butte,39.36669,-121.69109,Library
PARADISE BRANCH,PARADISE,95969,Butte,39.75799,-121.60616,Library
CALABASAS CITY LIBRARY,CALABASAS,91302,Los Angeles,34.15259,-118.64658,Library
ANGELS CAMP BRANCH,ANGELS CAMP,95222,Calaveras,38.08614,-120.56645,Library
ARNOLD BRANCH,ARNOLD,95223,Calaveras,38.25789,-120.34738,Library
CALAVERAS COUNTY LIBRARY,SAN ANDREAS,95249,Calaveras,38.1897,-120.66319,Library
COPPEROPOLIS BRANCH LIBRARY,COPPEROPOLIS,95228,Calaveras,37.96976,-120.62597,Library
MOKELUMNE HILL BRANCH LIBRARY,MOKELUMNE HILL,95245,Calaveras,38.30159,-120.70567,Library
MURPHYS BRANCH,MURPHYS,95247,Calaveras,38.13742,-120.45964,Library
VALLEY SPRINGS BRANCH,VALLEY SPRINGS,95252,Calaveras,38.19105,-120.83253,Library
WEST POINT BRANCH LIBRARY,WEST POINT,95255,Calaveras,38.39866,-120.52643,Library
CAMARENA MEMORIAL PUBLIC LIBRARY,CALEXICO,92231,Imperial,32.67527,-115.48765,Library
CARNEGIE TECHNOLOGY CENTER BRANCH,CALEXICO,92231,Imperial,32.66957,-115.49265,Library
CAMARILLO PUBLIC LIBRARY,CAMARILLO,93010,Ventura,34.24317,-119.0139,Library
DOVE LIBRARY,CARLSBAD,92011,San Diego,33.10543,-117.26986,Library
GEORGINA COLE LIBRARY,CARLSBAD,92008,San Diego,33.16495,-117.34051,Library
CARLSBAD CITY LIBRARY LEARNING CENTER,CARLSBAD,92008,San Diego,33.15934,-117.33858,Library
CARPINTERIA COMMUNITY LIBRARY,CARPINTERIA,93013,Santa Barbara,34.39744,-119.51704,Library
CERRITOS LIBRARY,CERRITOS,90703,Los Angeles,33.86705,-118.06474,Library
CIVIC CENTER BRANCH,CHULA VISTA,91910,San Diego,32.64094,-117.08336,Library
OTAY RANCH LIBRARY,CHULA VISTA,91915,San Diego,32.62384,-116.96698,Library
SOUTH CHULA VISTA LIBRARY,CHULA VISTA,91911,San Diego,32.60191,-117.06855,Library
BANDINI BRANCH,COMMERCE,90040,Los Angeles,34.00516,-118.16498,Library
BRISTOW PARK BRANCH,COMMERCE,90040,Los Angeles,34.01304,-118.16923,Library
CITY OF COMMERCE ROSEWOOD LIBRARY,COMMERCE,90040,Los Angeles,34.00033,-118.15669,Library
VETERANS BRANCH,COMMERCE,90040,Los Angeles,33.98624,-118.12455,Library
COALINGA LIBRARY,COALINGA,93210,Fresno,36.14141,-120.36094,Library
HURON BRANCH LIBRARY,HURON,93234,Fresno,36.21002,-120.09951,Library
COLTON MAIN LIBRARY,COLTON,92324,San Bernardino,34.07177,-117.3212,Library
LUQUE BRANCH LIBRARY,COLTON,92324,San Bernardino,34.05923,-117.32213,Library
ARBUCKLE BRANCH,ARBUCKLE,95912,Colusa,39.01534,-122.05831,Library
COLUSA COUNTY FREE LIBRARY,COLUSA,95932,Colusa,39.21504,-122.01097,Library
GRIMES BRANCH,GRIMES,95950,Colusa,39.07426,-121.89432,Library
MAXWELL BRANCH,MAXWELL,95955,Colusa,39.27647,-122.19219,Library
PRINCETON BRANCH,PRINCETON,95970,Colusa,39.44839,-122.02692,Library
STONYFORD BRANCH,STONYFORD,95979,Colusa,39.36893,-122.54819,Library
WILLIAMS BRANCH,WILLIAMS,95987,Colusa,39.15352,-122.15185,Library
ANTIOCH LIBRARY,ANTIOCH,94509,Contra Costa,38.00471,-121.81262,Library
BAY POINT LIBRARY,BAY POINT,94565,Contra Costa,38.03363,-121.96715,Library
BRENTWOOD LIBRARY,BRENTWOOD,94513,Contra Costa,37.93361,-121.69258,Library
CLAYTON COMMUNITY LIBRARY,CLAYTON,94517,Contra Costa,37.94256,-121.93531,Library
CONCORD LIBRARY,CONCORD,94519,Contra Costa,37.98159,-122.02519,Library
CROCKETT LIBRARY,CROCKETT,94525,Contra Costa,38.05542,-122.22074,Library
DANVILLE LIBRARY,DANVILLE,94526,Contra Costa,37.82086,-121.99561,Library
DOUGHERTY STATION LIBRARY,SAN RAMON,94582,Contra Costa,37.75391,-121.90973,Library
EL CERRITO LIBRARY,EL CERRITO,94530,Contra Costa,37.90841,-122.30398,Library
EL SOBRANTE LIBRARY,EL SOBRANTE,94803,Contra Costa,37.9674,-122.30964,Library
HERCULES LIBRARY,HERCULES,94547,Contra Costa,38.00957,-122.26517,Library
KENSINGTON LIBRARY,KENSINGTON,94707,Contra Costa,37.91298,-122.28103,Library
LAFAYETTE LIBRARY,LAFAYETTE,94549,Contra Costa,37.89226,-122.11602,Library
MARTINEZ LIBRARY,MARTINEZ,94553,Contra Costa,38.01795,-122.13418,Library
MORAGA LIBRARY,MORAGA,94556,Contra Costa,37.84135,-122.11014,Library
OAKLEY LIBRARY,OAKLEY,94561,Contra Costa,37.97065,-121.71803,Library
ORINDA LIBRARY,ORINDA,94563,Contra Costa,37.88253,-122.18746,Library
PLEASANT HILL LIBRARY,PLEASANT HILL,94523,Contra Costa,37.93486,-122.06839,Library
PINOLE LIBRARY,PINOLE,94564,Contra Costa,37.99242,-122.28499,Library
PITTSBURG LIBRARY,PITTSBURG,94565,Contra Costa,38.01874,-121.8909,Library
PREWETT LIBRARY,ANTIOCH,94531,Contra Costa,37.96627,-121.77448,Library
RODEO LIBRARY,RODEO,94572,Contra Costa,38.03525,-122.26842,Library
SAN PABLO LIBRARY,SAN PABLO,94806,Contra Costa,37.95788,-122.33993,Library
SAN RAMON LIBRARY,SAN RAMON,94583,Contra Costa,37.76433,-121.95327,Library
WALNUT CREEK LIBRARY,WALNUT CREEK,94596,Contra Costa,37.90132,-122.06026,Library
YGNACIO VALLEY LIBRARY,WALNUT CREEK,94598,Contra Costa,37.92408,-122.01262,Library
CORONA PUBLIC LIBRARY,CORONA,92882,Riverside,33.87499,-117.56804,Library
CORONADO PUBLIC LIBRARY,CORONADO,92118,San Diego,32.6912,-117.17767,Library
COVINA PUBLIC LIBRARY,COVINA,91723,Los Angeles,34.0882,-117.88745,Library
CROWELL PUBLIC LIBRARY,SAN MARINO,91108,Los Angeles,34.11901,-118.11269,Library
BAYSHORE LIBRARY,DALY CITY,94014,San Mateo,37.7016,-122.41897,Library
JOHN D. DALY LIBRARY,DALY CITY,94014,San Mateo,37.70202,-122.46261,Library
SERRAMONTE MAIN LIBRARY,DALY CITY,94015,San Mateo,37.66304,-122.47039,Library
WESTLAKE LIBRARY,DALY CITY,94015,San Mateo,37.69722,-122.4854,Library
DEL NORTE COUNTY LIBRARY DISTRICT,CRESCENT CITY,95531,Del Norte,41.75575,-124.20259,Library
SMITH RIVER BRANCH,SMITH RIVER,95567,Del Norte,41.92632,-124.14821,Library
DOWNEY CITY LIBRARY,DOWNEY,90241,Los Angeles,33.93969,-118.12882,Library
COMMUNITY CENTER BRANCH LIBRARY,EL CENTRO,92243,Imperial,32.79031,-115.54382,Library
EL CENTRO PUBLIC LIBRARY,EL CENTRO,92243,Imperial,32.80247,-115.57161,Library
CAMERON PARK BRANCH,CAMERON PARK,95682,El Dorado,38.65996,-121.00571,Library
EL DORADO COUNTY LIBRARY,PLACERVILLE,95667,El Dorado,38.72892,-120.82769,Library
EL DORADO HILLS LIBRARY,EL DORADO HILLS,95762,El Dorado,38.67204,-121.06459,Library
GEORGETOWN LIBRARY,GEORGETOWN,95634,El Dorado,38.90634,-120.83762,Library
POLLOCK PINES LIBRARY,POLLOCK PINES,95726,El Dorado,38.75961,-120.58827,Library
SOUTH LAKE TAHOE LIBRARY,SOUTH LAKE TAHOE,96150,El Dorado,38.9445,-119.97356,Library
CENTER STREET SCHOOL BRANCH LIBRARY,EL SEGUNDO,90245,Los Angeles,33.92473,-118.40461,Library
EL SEGUNDO PUBLIC LIBRARY,EL SEGUNDO,90245,Los Angeles,33.92392,-118.41678,Library
HIGH SCHOOL BRANCH LIBRARY,EL SEGUNDO,90245,Los Angeles,33.92487,-118.41538,Library
MIDDLE SCHOOL BRANCH LIBRARY,EL SEGUNDO,90245,Los Angeles,33.9202,-118.40464,Library
RICHMOND STREET ELEMENTARY SCHOOL LIBRARY,EL SEGUNDO,90245,Los Angeles,33.92435,-118.41746,Library
ESCONDIDO PIONEER ROOM AND COMPUTER CENTER,ESCONDIDO,92025,San Diego,33.1206,-117.07925,Library
ESCONDIDO PUBLIC LIBRARY,ESCONDIDO,92025,San Diego,33.12082,-117.07987,Library
"FOLSOM PUBLIC LIBRARY, GEORGIA MURRAY BUILDING",FOLSOM,95630,Sacramento,38.68126,-121.16659,Library
AUBERRY BRANCH LIBRARY,AUBERRY,93602,Fresno,37.07471,-119.48785,Library
BEAR MOUNTAIN BRANCH LIBRARY,SQUAW VALLEY,93675,Fresno,36.73842,-119.25071,Library
BETTY RODRIGUEZ REGIONAL LIBRARY,FRESNO,93703,Fresno,36.77826,-119.75374,Library
BIG CREEK STATION,BIG CREEK,93605,Fresno,37.20481,-119.24712,Library
BIOLA STATION,BIOLA,93723,Fresno,36.80497,-120.01755,Library
CARUTHERS BRANCH LIBRARY,CARUTHERS,93609,Fresno,36.54212,-119.83139,Library
CENTRAL LIBRARY,FRESNO,93721,Fresno,36.7379,-119.78649,Library
CLOVIS REGIONAL LIBRARY,CLOVIS,93612,Fresno,36.82431,-119.69479,Library
EASTON BRANCH LIBRARY,EASTON,93706,Fresno,36.65224,-119.79036,Library
FIG GARDEN REGIONAL LIBRARY,FRESNO,93711,Fresno,36.82238,-119.84643,Library
FIREBAUGH BRANCH LIBRARY,FIREBAUGH,93622,Fresno,36.85686,-120.45395,Library
FOWLER BRANCH LIBRARY,FOWLER,93625,Fresno,36.62743,-119.67776,Library
GILLIS BRANCH LIBRARY,FRESNO,93705,Fresno,36.78631,-119.819,Library
KERMAN BRANCH LIBRARY,KERMAN,93630,Fresno,36.7274,-120.06133,Library
KINGSBURG BRANCH LIBRARY,KINGSBURG,93631,Fresno,36.51481,-119.55325,Library
LATON STATION,LATON,93242,Fresno,36.43458,-119.68475,Library
LITERACY SERVICES CENTER,FRESNO,93721,Fresno,36.7379,-119.78649,Library
MENDOTA BRANCH LIBRARY,MENDOTA,93640,Fresno,36.74876,-120.38471,Library
MOSQUEDA BRANCH LIBRARY,FRESNO,93702,Fresno,36.72811,-119.74256,Library
ORANGE COVE BRANCH LIBRARY,ORANGE COVE,93646,Fresno,36.62425,-119.3153,Library
PINEDALE BRANCH LIBRARY,PINEDALE,93650,Fresno,36.8405,-119.79422,Library
PARLIER BRANCH LIBRARY,PARLIER,93648,Fresno,36.61187,-119.53529,Library
PIEDRA STATION,PIEDRA,93649,Fresno,36.82035,-119.38052,Library
POLITI BRANCH LIBRARY,FRESNO,93710,Fresno,36.82225,-119.77366,Library
REEDLEY BRANCH LIBRARY,REEDLEY,93654,Fresno,36.59805,-119.44963,Library
RIVERDALE BRANCH LIBRARY,RIVERDALE,93656,Fresno,36.43112,-119.86162,Library
SAN JOAQUIN BRANCH LIBRARY,SAN JOAQUIN,93660,Fresno,36.60731,-120.18714,Library
SANGER BRANCH LIBRARY,SANGER,93657,Fresno,36.70615,-119.56283,Library
SELMA BRANCH LIBRARY,SELMA,93662,Fresno,36.56747,-119.60939,Library
SHAVER LAKE BRANCH LIBRARY,SHAVER LAKE,93664,Fresno,37.10215,-119.32095,Library
SUNNYSIDE BRANCH LIBRARY,FRESNO,93727,Fresno,36.73484,-119.70125,Library
TALKING BOOK LIBRARY FOR THE BLIND,FRESNO,93728,Fresno,36.7529,-119.79435,Library
TEAGUE BRANCH LIBRARY,FRESNO,93722,Fresno,36.80273,-119.88984,Library
TRANQUILLITY STATION,TRANQUILLITY,93668,Fresno,36.64951,-120.25132,Library
WEST FRESNO BRANCH LIBRARY,FRESNO,93706,Fresno,36.72023,-119.81021,Library
WOODWARD PARK REGIONAL LIBRARY,FRESNO,93720,Fresno,36.8716,-119.76658,Library
FULLERTON MAIN LIBRARY,FULLERTON,92832,Orange,33.87072,-117.93048,Library
BRAND LIBRARY,GLENDALE,91201,Los Angeles,34.18264,-118.27644,Library
CASA VERDUGO BRANCH LIBRARY,GLENDALE,91202,Los Angeles,34.16326,-118.25545,Library
CHEVY CHASE BRANCH LIBRARY,GLENDALE,91206,Los Angeles,34.17382,-118.20007,Library
"GLENDALE LIBRARY, ARTS & CULTURE",GLENDALE,91205,Los Angeles,34.14399,-118.25359,Library
GRANDVIEW BRANCH LIBRARY,GLENDALE,91201,Los Angeles,34.17041,-118.28551,Library
LIBRARY CONNECTION @ ADAMS SQUARE,GLENDALE,91205,Los Angeles,34.13365,-118.2415,Library
MONTROSE BRANCH LIBRARY,MONTROSE,91020,Los Angeles,34.2075,-118.2327,Library
PACIFIC PARK BRANCH LIBRARY,GLENDALE,91204,Los Angeles,34.13924,-118.26475,Library
GLENDORA LIBRARY & CULTURAL CENTER,GLENDORA,91741,Los Angeles,34.13507,-117.86528,Library
BUELLTON LIBRARY,BUELLTON,93427,Santa Barbara,34.6141,-120.19623,Library
GOLETA VALLEY LIBRARY,GOLETA,93117,Santa Barbara,34.4476,-119.83012,Library
SOLVANG LIBRARY,SOLVANG,93463,Santa Barbara,34.59651,-120.13611,Library
HARRISON MEMORIAL LIBRARY,CARMEL,93921,Monterey,36.55509,-121.92355,Library
PARK BRANCH LIBRARY - HARRISON MEMORIAL,CARMEL,93921,Monterey,36.55434,-121.92096,Library
HAYWARD PUBLIC LIBRARY,HAYWARD,94541,Alameda,37.67009,-122.08308,Library
WEEKES BRANCH LIBRARY,HAYWARD,94544,Alameda,37.63339,-122.07893,Library
HEMET PUBLIC LIBRARY,HEMET,92543,Riverside,33.74958,-116.96974,Library
ARCATA LIBRARY,ARCATA,95521,Humboldt,40.86772,-124.08411,Library
BLUE LAKE LIBRARY,BLUE LAKE,95525,Humboldt,40.88254,-123.99199,Library
EUREKA MAIN LIBRARY,EUREKA,95501,Humboldt,40.80594,-124.15731,Library
FERNDALE LIBRARY,FERNDALE,95536,Humboldt,40.57988,-124.26119,Library
FORTUNA LIBRARY,FORTUNA,95540,Humboldt,40.59873,-124.15214,Library
GARBERVILLE LIBRARY,GARBERVILLE,95542,Humboldt,40.10235,-123.79211,Library
KIM YERTON MEMORIAL LIBRARY,HOOPA,95546,Humboldt,41.05005,-123.67829,Library
MCKINLEYVILLE LIBRARY,MCKINLEYVILLE,95519,Humboldt,40.94419,-124.09981,Library
RIO DELL LIBRARY,RIO DELL,95562,Humboldt,40.50003,-124.10659,Library
TRINIDAD BRANCH LIBRARY,TRINIDAD,95570,Humboldt,41.06203,-124.14118,Library
WILLOW CREEK (KLAMATH-TRINITY) LIBRARY,WILLOW CREEK,95573,Humboldt,40.93998,-123.63093,Library
BANNING LIBRARY,HUNTINGTON BEACH,92646,Orange,33.64361,-117.96561,Library
HELEN MURPHY BRANCH,HUNTINGTON BEACH,92649,Orange,33.73112,-118.03235,Library
HUNTINGTON BEACH CENTRAL LIBRARY,HUNTINGTON BEACH,92648,Orange,33.70194,-118.00452,Library
MAIN STREET LIBRARY,HUNTINGTON BEACH,92648,Orange,33.66201,-117.99917,Library
OAK VIEW BRANCH,HUNTINGTON BEACH,92647,Orange,33.71155,-117.99416,Library
CALIPATRIA BRANCH LIBRARY,CALIPATRIA,92233,Imperial,33.12545,-115.51724,Library
HEBER BRANCH LIBRARY,HEBER,92249,Imperial,32.73356,-115.5297,Library
HOLTVILLE BRANCH LIBRARY,HOLTVILLE,92250,Imperial,32.81307,-115.37984,Library
SALTON CITY LIBRARY,SALTON CITY,92275,Imperial,33.27718,-115.96427,Library
IMPERIAL PUBLIC LIBRARY,IMPERIAL,92251,Imperial,32.84849,-115.56869,Library
CRENSHAW-IMPERIAL LIBRARY,INGLEWOOD,90303,Los Angeles,33.93367,-118.32679,Library
INGLEWOOD PUBLIC LIBRARY,INGLEWOOD,90301,Los Angeles,33.96227,-118.3556,Library
BIG PINE BRANCH LIBRARY,BIG PINE,93513,Inyo,37.16169,-118.28898,Library
BISHOP BRANCH LIBRARY,BISHOP,93514,Inyo,37.36296,-118.39646,Library
FURNACE CREEK BRANCH LIBRARY,DEATH VALLEY,92328,Inyo,36.5029,-116.87098,Library
INYO COUNTY FREE LIBRARY,INDEPENDENCE,93526,Inyo,36.80357,-118.19962,Library
LONE PINE BRANCH LIBRARY,LONE PINE,93545,Inyo,36.60629,-118.06432,Library
TECOPA BRANCH LIBRARY,TECOPA,92389,Inyo,35.87135,-116.23271,Library
IRWINDALE PUBLIC LIBRARY,IRWINDALE,91706,Los Angeles,34.10449,-117.93344,Library
ARVIN BRANCH LIBRARY,ARVIN,93203,Kern,35.21035,-118.8337,Library
BAKER BRANCH LIBRARY,BAKERSFIELD,93305,Kern,35.38347,-118.99084,Library
BORON BRANCH LIBRARY,BORON,93516,Kern,34.99983,-117.65076,Library
BUTTONWILLOW BRANCH LIBRARY,BUTTONWILLOW,93206,Kern,35.40065,-119.46993,Library
CALIFORNIA CITY BRANCH LIBRARY,CALIFORNIA CITY,93505,Kern,35.12648,-117.95835,Library
DELANO BRANCH LIBRARY,DELANO,93215,Kern,35.76947,-119.24465,Library
ELEANOR N. WILSON BRANCH LIBRARY,BAKERSFIELD,93304,Kern,35.33189,-119.02376,Library
FRAZIER PARK BRANCH LIBRARY,FRAZIER PARK,93225,Kern,34.81924,-118.94845,Library
HOLLOWAY-GONZALES BRANCH LIBRARY,BAKERSFIELD,93307,Kern,35.35424,-118.9984,Library
BEALE MEMORIAL LIBRARY,BAKERSFIELD,93301,Kern,35.37267,-119.01005,Library
KERN RIVER VALLEY BRANCH LIBRARY,LAKE ISABELLA,93240,Kern,35.63772,-118.46687,Library
LAMONT BRANCH LIBRARY,LAMONT,93241,Kern,35.25642,-118.91128,Library
MCFARLAND BRANCH LIBRARY,MCFARLAND,93250,Kern,35.67829,-119.2343,Library
MOJAVE BRANCH LIBRARY,MOJAVE,93501,Kern,35.04881,-118.16766,Library
NORTHEAST BRANCH LIBRARY,BAKERSFIELD,93306,Kern,35.39876,-118.95106,Library
RATHBUN BRANCH LIBRARY,BAKERSFIELD,93308,Kern,35.42740436,-119.0241324,Library
RIDGECREST BRANCH LIBRARY,RIDGECREST,93555,Kern,35.62902,-117.66865,Library
ROSAMOND BRANCH LIBRARY,ROSAMOND,93560,Kern,34.86431,-118.19537,Library
SOUTHWEST BRANCH LIBRARY,BAKERSFIELD,93311,Kern,35.33934,-119.09553,Library
TAFT BRANCH LIBRARY,TAFT,93268,Kern,35.14933,-119.45919,Library
TEHACHAPI BRANCH LIBRARY,TEHACHAPI,93561,Kern,35.13055,-118.44759,Library
WASCO BRANCH LIBRARY,WASCO,93280,Kern,35.59715,-119.33843,Library
ARMONA COMMUNITY LIBRARY,ARMONA,93202,Kings,36.31184,-119.70662,Library
AVENAL LIBRARY,AVENAL,93204,Kings,36.00286,-120.13074,Library
CORCORAN LIBRARY,CORCORAN,93212,Kings,36.09947,-119.5593,Library
HANFORD LIBRARY,HANFORD,93230,Kings,36.32934,-119.64533,Library
KETTLEMAN CITY LIBRARY,KETTLEMAN CITY,93239,Kings,36.00686,-119.96023,Library
LEMOORE LIBRARY,LEMOORE,93245,Kings,36.29999,-119.78752,Library
STRATFORD,STRATFORD,93266,Kings,36.18941,-119.82352,Library
A C BILBREW LIBRARY,LOS ANGELES,90061,Los Angeles,33.91608,-118.2723,Library
ACTON AGUA DULCE,ACTON,93510,Los Angeles,34.49503,-118.19742,Library
AGOURA HILLS LIBRARY,AGOURA HILLS,91301,Los Angeles,34.14458,-118.77568,Library
ALONDRA LIBRARY,NORWALK,90650,Los Angeles,33.88791,-118.0785,Library
ANGELO M. IACOBONI LIBRARY,LAKEWOOD,90712,Los Angeles,33.84869,-118.13339,Library
ANTHONY QUINN LIBRARY,LOS ANGELES,90063,Los Angeles,34.04074,-118.18021,Library
ARTESIA LIBRARY,ARTESIA,90701,Los Angeles,33.86038,-118.07718,Library
AVALON LIBRARY,AVALON,90704,Los Angeles,33.34311,-118.32717,Library
BALDWIN PARK LIBRARY,BALDWIN PARK,91706,Los Angeles,34.08801,-117.96526,Library
BELL GARDENS LIBRARY,BELL GARDENS,90201,Los Angeles,33.96666,-118.15053,Library
BELL LIBRARY,BELL,90201,Los Angeles,33.97839,-118.18857,Library
CARSON LIBRARY,CARSON,90745,Los Angeles,33.83217,-118.27632,Library
CASTAIC LIBRARY,CASTAIC,91384,Los Angeles,34.49578,-118.62687,Library
CHARTER OAK LIBRARY,COVINA,91724,Los Angeles,34.10604,-117.85363,Library
CHET HOLIFIELD LIBRARY,MONTEBELLO,90640,Los Angeles,33.99329,-118.12009,Library
CITY TERRACE LIBRARY,LOS ANGELES,90063,Los Angeles,34.05598,-118.17808,Library
CLAREMONT HELEN RENWICK LIBRARY,CLAREMONT,91711,Los Angeles,34.09589,-117.71603,Library
CLIFTON M. BRAKENSIEK LIBRARY,BELLFLOWER,90706,Los Angeles,33.88245,-118.1215,Library
COMPTON LIBRARY,COMPTON,90220,Los Angeles,33.89544,-118.22571,Library
CUDAHY LIBRARY,CUDAHY,90201,Los Angeles,33.9594,-118.1746,Library
CULVER CITY JULIAN DIXON LIBRARY,CULVER CITY,90230,Los Angeles,34.00762,-118.39707,Library
DIAMOND BAR LIBRARY,DIAMOND BAR,91765,Los Angeles,33.99907,-117.83071,Library
"DR. MARTIN LUTHER KING, JR. LIBRARY",CARSON,90746,Los Angeles,33.86766,-118.26568,Library
DUARTE LIBRARY,DUARTE,91010,Los Angeles,34.13811,-117.97789,Library
EAST LOS ANGELES LIBRARY,LOS ANGELES,90022,Los Angeles,34.03399,-118.15972,Library
EAST RANCHO DOMINGUEZ LIBRARY,EAST RANCHO DOMINGUE,90221,Los Angeles,33.89637,-118.19761,Library
EL CAMINO REAL LIBRARY,LOS ANGELES,90023,Los Angeles,34.02369,-118.17777,Library
EL MONTE LIBRARY,EL MONTE,91731,Los Angeles,34.0671,-118.03572,Library
FLORENCE LIBRARY,LOS ANGELES,90001,Los Angeles,33.9745,-118.24512,Library
GARDENA MAYME DEAR LIBRARY,GARDENA,90247,Los Angeles,33.88218,-118.30752,Library
GEORGE NYE JR. LIBRARY,LAKEWOOD,90713,Los Angeles,33.84622,-118.10329,Library
GRAHAM LIBRARY,LOS ANGELES,90001,Los Angeles,33.95993,-118.23833,Library
HACIENDA HEIGHTS LIBRARY,HACIENDA HEIGHTS,91745,Los Angeles,33.99354,-117.96412,Library
HAWAIIAN GARDENS LIBRARY,HAWAIIAN GARDENS,90716,Los Angeles,33.83117,-118.07802,Library
HAWTHORNE LIBRARY,HAWTHORNE,90250,Los Angeles,33.91721,-118.3545,Library
HERMOSA BEACH LIBRARY,HERMOSA BEACH,90254,Los Angeles,33.86427,-118.39559,Library
HOLLYDALE LIBRARY,SOUTH GATE,90280,Los Angeles,33.91773,-118.16872,Library
HUNTINGTON PARK LIBRARY,HUNTINGTON PARK,90255,Los Angeles,33.98038,-118.21876,Library
LA CANADA FLINTRIDGE LIBRARY,LA CANADA FLINTRIDGE,91011,Los Angeles,34.20283,-118.19404,Library
LA CRESCENTA LIBRARY,LA CRESCENTA,91214,Los Angeles,34.22468,-118.24037,Library
LA MIRADA LIBRARY,LA MIRADA,90638,Los Angeles,33.9058,-118.01096,Library
LA PUENTE LIBRARY,LA PUENTE,91744,Los Angeles,34.01936,-117.95112,Library
LA VERNE LIBRARY,LA VERNE,91750,Los Angeles,34.11138,-117.76418,Library
LAKE LOS ANGELES LIBRARY,PALMDALE,93591,Los Angeles,34.61702,-117.82772,Library
LANCASTER LIBRARY,LANCASTER,93534,Los Angeles,34.69848,-118.14025,Library
LAWNDALE LIBRARY,LAWNDALE,90260,Los Angeles,33.89852,-118.35446,Library
LELAND R. WEAVER LIBRARY,SOUTH GATE,90280,Los Angeles,33.94409,-118.20158,Library
LENNOX LIBRARY,LENNOX,90304,Los Angeles,33.93846,-118.35227,Library
LITTLEROCK LIBRARY,LITTLEROCK,93543,Los Angeles,34.51992,-117.98874,Library
LIVE OAK LIBRARY,ARCADIA,91006,Los Angeles,34.11013,-118.0131,Library
LLOYD TABER-MARINA DEL REY LIBRARY,MARINA DEL REY,90292,Los Angeles,33.98289,-118.44311,Library
LOMITA LIBRARY,LOMITA,90717,Los Angeles,33.80527,-118.31912,Library
LOS NIETOS LIBRARY,WHITTIER,90606,Los Angeles,33.96473,-118.07317,Library
LYNWOOD LIBRARY,LYNWOOD,90262,Los Angeles,33.9272,-118.19907,Library
MALIBU LIBRARY,MALIBU,90265,Los Angeles,34.03697,-118.68863,Library
MANHATTAN BEACH LIBRARY,MANHATTAN BEACH,90266,Los Angeles,33.8869,-118.41038,Library
MASAO W. SATOW LIBRARY,GARDENA,90249,Los Angeles,33.90001,-118.32697,Library
MAYWOOD CESAR CHAVEZ LIBRARY,MAYWOOD,90270,Los Angeles,33.98776,-118.18899,Library
MONTEBELLO LIBRARY,MONTEBELLO,90640,Los Angeles,34.02076,-118.11547,Library
NORWALK LIBRARY,NORWALK,90650,Los Angeles,33.91668,-118.06938,Library
NORWOOD LIBRARY,EL MONTE,91732,Los Angeles,34.08698,-118.01614,Library
PARAMOUNT LIBRARY,PARAMOUNT,90723,Los Angeles,33.88567,-118.161,Library
PICO RIVERA LIBRARY,PICO RIVERA,90660,Los Angeles,33.99202,-118.08927,Library
QUARTZ HILL LIBRARY,QUARTZ HILL,93536,Los Angeles,34.64621,-118.21817,Library
RIVERA LIBRARY,PICO RIVERA,90660,Los Angeles,33.96897,-118.10107,Library
ROSEMEAD LIBRARY,ROSEMEAD,91770,Los Angeles,34.08023,-118.07724,Library
ROWLAND HEIGHTS LIBRARY,ROWLAND HEIGHTS,91748,Los Angeles,33.98446,-117.88856,Library
SAN DIMAS LIBRARY,SAN DIMAS,91773,Los Angeles,34.10809,-117.80321,Library
SAN FERNANDO LIBRARY,SAN FERNANDO,91340,Los Angeles,34.28562,-118.4386,Library
SAN GABRIEL LIBRARY,SAN GABRIEL,91776,Los Angeles,34.09578,-118.09933,Library
SORENSEN LIBRARY,WHITTIER,90606,Los Angeles,33.9795,-118.06238,Library
SOUTH EL MONTE LIBRARY,SOUTH EL MONTE,91733,Los Angeles,34.0448,-118.04665,Library
SOUTH WHITTIER LIBRARY,WHITTIER,90604,Los Angeles,33.92549,-118.02456,Library
STEVENSON RANCH EXPRESS LIBRARY,STEVENSON RANCH,91381,Los Angeles,34.39322,-118.5728,Library
SUNKIST LIBRARY,LA PUENTE,91746,Los Angeles,34.05524,-117.97675,Library
TEMPLE CITY LIBRARY,TEMPLE CITY,91780,Los Angeles,34.10839,-118.05717,Library
TOPANGA,TOPANGA,90290,Los Angeles,34.08991,-118.60341,Library
VIEW PARK BEBE MOORE CAMPBELL LIBRARY,LOS ANGELES,90043,Los Angeles,33.99281,-118.34122,Library
WALNUT LIBRARY,WALNUT,91789,Los Angeles,34.02596,-117.84369,Library
WEST COVINA LIBRARY,WEST COVINA,91790,Los Angeles,34.07106,-117.94037,Library
WEST HOLLYWOOD LIBRARY,WEST HOLLYWOOD,90069,Los Angeles,34.08168,-118.38427,Library
WESTLAKE VILLAGE LIBRARY,WESTLAKE VILLAGE,91361,Los Angeles,34.14455,-118.79901,Library
WILLOWBROOK LIBRARY,LOS ANGELES,90059,Los Angeles,33.92664,-118.23935,Library
WISEBURN LIBRARY,HAWTHORNE,90250,Los Angeles,33.90979,-118.37345,Library
WOODCREST LIBRARY,LOS ANGELES,90044,Los Angeles,33.93982,-118.29994,Library
LAKE COUNTY LIBRARY,LAKEPORT,95453,Lake,39.05148,-122.91744,Library
MIDDLETOWN LIBRARY,MIDDLETOWN,95461,Lake,38.74998,-122.6152,Library
REDBUD LIBRARY,CLEARLAKE,95422,Lake,38.96501,-122.63419,Library
UPPER LAKE LIBRARY,UPPER LAKE,95485,Lake,39.16606,-122.91015,Library
LARKSPUR PUBLIC LIBRARY,LARKSPUR,94939,Marin,37.9343,-122.53531,Library
LASSEN LIBRARY DISTRICT,SUSANVILLE,96130,Lassen,40.41487,-120.64943,Library
TWELVE BRIDGES,LINCOLN,95648,Placer,38.84979,-121.29229,Library
CIVIC CENTER LIBRARY,LIVERMORE,94550,Alameda,37.67424,-121.75429,Library
RINCON BRANCH LIBRARY,LIVERMORE,94551,Alameda,37.68651,-121.78488,Library
SPRINGTOWN BRANCH LIBRARY,LIVERMORE,94551,Alameda,37.7069,-121.73738,Library
LODI PUBLIC LIBRARY,LODI,95240,San Joaquin,38.13709,-121.27542,Library
LOMPOC PUBLIC LIBRARY,LOMPOC,93436,Santa Barbara,34.65372,-120.45201,Library
VILLAGE BRANCH LIBRARY,LOMPOC,93436,Santa Barbara,34.70036,-120.4667,Library
ALAMITOS BRANCH LIBRARY,LONG BEACH,90802,Los Angeles,33.76886,-118.16856,Library
BACH BRANCH LIBRARY,LONG BEACH,90808,Los Angeles,33.83187,-118.12557,Library
BAY SHORE BRANCH LIBRARY,LONG BEACH,90803,Los Angeles,33.75804,-118.13051,Library
BRET HARTE BRANCH LIBRARY,LONG BEACH,90810,Los Angeles,33.80459,-118.21407,Library
BREWITT BRANCH LIBRARY,LONG BEACH,90804,Los Angeles,33.78238,-118.14514,Library
BURNETT BRANCH LIBRARY,LONG BEACH,90806,Los Angeles,33.79685,-118.18573,Library
DANA BRANCH LIBRARY,LONG BEACH,90807,Los Angeles,33.82406,-118.18472,Library
EL DORADO BRANCH LIBRARY,LONG BEACH,90815,Los Angeles,33.8089,-118.0986,Library
BILLIE JEAN KING MAIN LIBRARY,LONG BEACH,90802,Los Angeles,33.76923,-118.19438,Library
LOS ALTOS BRANCH LIBRARY,LONG BEACH,90815,Los Angeles,33.79337,-118.12254,Library
MARK TWAIN BRANCH LIBRARY,LONG BEACH,90813,Los Angeles,33.78289,-118.17343,Library
MICHELLE OBAMA NEIGHBORHOOD LIBRARY,LONG BEACH,90805,Los Angeles,33.86153,-118.18458,Library
LOOMIS LIBRARY & COMMUNITY LEARNING CENTER,LOOMIS,95650,Placer,38.82,-121.19055,Library
ANGELES MESA BRANCH,LOS ANGELES,90043,Los Angeles,33.99483,-118.32286,Library
ARROYO SECO REGIONAL BRANCH,LOS ANGELES,90042,Los Angeles,34.11383,-118.18633,Library
ASCOT BRANCH,LOS ANGELES,90003,Los Angeles,33.97436,-118.27463,Library
ATWATER VILLAGE BRANCH,LOS ANGELES,90039,Los Angeles,34.12013,-118.25919,Library
BALDWIN HILLS BRANCH,LOS ANGELES,90016,Los Angeles,34.02821,-118.35265,Library
BENJAMIN FRANKLIN BRANCH,LOS ANGELES,90033,Los Angeles,34.04404,-118.21223,Library
DONALD BRUCE KAUFMAN BRENTWOOD BRANCH,LOS ANGELES,90049,Los Angeles,34.05267,-118.46874,Library
CAHUENGA BRANCH,LOS ANGELES,90029,Los Angeles,34.09104,-118.28895,Library
CANOGA PARK BRANCH,CANOGA PARK,91303,Los Angeles,34.20136,-118.59015,Library
CHATSWORTH,CHATSWORTH,91311,Los Angeles,34.257,-118.59246,Library
CHINATOWN BRANCH,LOS ANGELES,90012,Los Angeles,34.06066,-118.24107,Library
CYPRESS PARK BRANCH,LOS ANGELES,90065,Los Angeles,34.09446,-118.22745,Library
WILL AND ARIEL DURANT BRANCH,LOS ANGELES,90046,Los Angeles,34.09773,-118.34566,Library
EAGLE ROCK BRANCH,LOS ANGELES,90041,Los Angeles,34.13758,-118.21361,Library
ECHO PARK LIBRARY,LOS ANGELES,90026,Los Angeles,34.06722,-118.25724,Library
EDENDALE BRANCH,LOS ANGELES,90026,Los Angeles,34.07817,-118.26232,Library
EL SERENO BRANCH,LOS ANGELES,90032,Los Angeles,34.08922,-118.16851,Library
ENCINO-TARZANA LIBRARY,TARZANA,91356,Los Angeles,34.16677,-118.53005,Library
EXPOSITION PARK REGIONAL BRANCH,LOS ANGELES,90062,Los Angeles,34.0144,-118.30862,Library
FAIRFAX BRANCH,LOS ANGELES,90036,Los Angeles,34.07177,-118.35359,Library
FELIPE DE NEVE BRANCH,LOS ANGELES,90057,Los Angeles,34.06331,-118.28397,Library
GRANADA HILLS BRANCH,GRANADA HILLS,91344,Los Angeles,34.26428,-118.49762,Library
HARBOR CITY-HARBOR GATEWAY,HARBOR CITY,90710,Los Angeles,33.80695,-118.30731,Library
GOLDWYN HOLLYWOOD REGIONAL BRANCH,LOS ANGELES,90028,Los Angeles,34.10052,-118.32871,Library
HYDE PARK BRANCH,LOS ANGELES,90043,Los Angeles,33.97478,-118.3182,Library
JEFFERSON BRANCH,LOS ANGELES,90018,Los Angeles,34.02593,-118.31921,Library
JOHN C. FREMONT BRANCH,LOS ANGELES,90038,Los Angeles,34.08371,-118.33382,Library
JOHN MUIR BRANCH,LOS ANGELES,90044,Los Angeles,33.98152,-118.29208,Library
JUNIPERO SERRA BRANCH,LOS ANGELES,90037,Los Angeles,34.00173,-118.27437,Library
LAKE VIEW TERRACE,LAKE VIEW TERRACE,91342,Los Angeles,34.27277,-118.39391,Library
LINCOLN HEIGHTS BRANCH,LOS ANGELES,90031,Los Angeles,34.07616,-118.21401,Library
LITTLE TOKYO BRANCH LIBRARY,LOS ANGELES,90012,Los Angeles,34.05007,-118.2438,Library
LOS FELIZ BRANCH,LOS ANGELES,90027,Los Angeles,34.10507,-118.28715,Library
MALABAR BRANCH,LOS ANGELES,90033,Los Angeles,34.05074,-118.19777,Library
MARK TWAIN BRANCH,LOS ANGELES,90039,Los Angeles,33.94844,-118.28298,Library
MAR VISTA BRANCH,LOS ANGELES,90066,Los Angeles,34.0057,-118.42904,Library
MEMORIAL BRANCH,LOS ANGELES,90019,Los Angeles,34.05735,-118.33157,Library
MID-VALLEY REGIONAL BRANCH,NORTH HILLS,91343,Los Angeles,34.23512,-118.4874,Library
NORTH HOLLYWOOD REGIONAL BRANCH,NORTH HOLLYWOOD,91601,Los Angeles,34.16564,-118.37948,Library
NORTHRIDGE BRANCH,NORTHRIDGE,91325,Los Angeles,34.23509,-118.5341,Library
PACOIMA BRANCH,PACOIMA,91331,Los Angeles,34.26129,-118.42932,Library
PALISADES BRANCH,PACIFIC PALISADES,90272,Los Angeles,34.044,-118.52513,Library
PALMS-RANCHO PARK BRANCH,LOS ANGELES,90064,Los Angeles,34.03364,-118.41824,Library
PANORAMA CITY BRANCH,PANORAMA CITY,91402,Los Angeles,34.22193,-118.44641,Library
PICO UNION BRANCH,LOS ANGELES,90006,Los Angeles,34.05094,-118.28009,Library
PIO PICO KOREATOWN BRANCH,LOS ANGELES,90005,Los Angeles,34.06004,-118.30711,Library
PLATT BRANCH,LOS ANGELES,91367,Los Angeles,34.18623,-118.64136,Library
PLAYA VISTA BRANCH,PLAYA VISTA,90094,Los Angeles,33.97021,-118.4256,Library
PORTER RANCH BRANCH,LOS ANGELES,91326,Los Angeles,34.27763,-118.56005,Library
ROBERT LOUIS STEVENSON BRANCH,LOS ANGELES,90023,Los Angeles,34.02766,-118.19827,Library
ROBERTSON BRANCH,LOS ANGELES,90035,Los Angeles,34.04837,-118.38583,Library
SAN PEDRO REGIONAL BRANCH,SAN PEDRO,90731,Los Angeles,33.73574,-118.29295,Library
SHERMAN OAKS BRANCH,SHERMAN OAKS,91423,Los Angeles,34.15123,-118.44383,Library
SILVER LAKE BRANCH,LOS ANGELES,90039,Los Angeles,34.10034,-118.25965,Library
STUDIO CITY BRANCH,STUDIO CITY,91604,Los Angeles,34.1507,-118.40558,Library
SUNLAND-TUJUNGA BRANCH,TUJUNGA,91042,Los Angeles,34.25825,-118.30131,Library
SUN VALLEY BRANCH,SUN VALLEY,91352,Los Angeles,34.21488,-118.37095,Library
SYLMAR,SYLMAR,91342,Los Angeles,34.30879,-118.44785,Library
VALLEY PLAZA BRANCH,NORTH HOLLYWOOD,91605,Los Angeles,34.19463,-118.40111,Library
VAN NUYS BRANCH,VAN NUYS,91401,Los Angeles,34.18395,-118.44628,Library
VENICE BRANCH,VENICE,90291,Los Angeles,33.98754,-118.46536,Library
VERMONT SQUARE BRANCH,LOS ANGELES,90037,Los Angeles,33.99985,-118.2959,Library
VERNON-LEON H. WASHINGTON JR. MEMORIAL BRANCH,LOS ANGELES,90011,Los Angeles,34.00262,-118.25612,Library
WASHINGTON IRVING BRANCH,LOS ANGELES,90018,Los Angeles,34.04016,-118.32916,Library
ALMA REAVES WOODS WATTS BRANCH,LOS ANGELES,90002,Los Angeles,33.94403,-118.24663,Library
WESTCHESTER -LOYOLA VILLAGE BRANCH,LOS ANGELES,90045,Los Angeles,33.95954,-118.41717,Library
WEST LOS ANGELES REGIONAL BRANCH,LOS ANGELES,90025,Los Angeles,34.04572,-118.45019,Library
WEST VALLEY REGIONAL BRANCH,RESEDA,91335,Los Angeles,34.19335,-118.54808,Library
WESTWOOD BRANCH,WESTWOOD,90024,Los Angeles,34.05792,-118.44182,Library
WILMINGTON BRANCH,WILMINGTON,90744,Los Angeles,33.78915,-118.2628,Library
WILSHIRE BRANCH,LOS ANGELES,90004,Los Angeles,34.07446,-118.31177,Library
WOODLAND HILLS BRANCH,WOODLAND HILLS,91364,Los Angeles,34.16788,-118.61069,Library
CENTRAL LIBRARY,LOS ANGELES,90071,Los Angeles,34.0505,-118.25565,Library
LOS GATOS PUBLIC LIBRARY,LOS GATOS,95030,Santa Clara,37.22017,-121.97828,Library
CHOWCHILLA BRANCH LIBRARY,CHOWCHILLA,93610,Madera,37.12289,-120.26186,Library
MADERA LIBRARY,MADERA,93637,Madera,36.96136,-120.06196,Library
NORTH FORK BRANCH LIBRARY,NORTH FORK,93643,Madera,37.22579,-119.51017,Library
OAKHURST BRANCH LIBRARY,OAKHURST,93644,Madera,37.33085,-119.65331,Library
MADERA RANCHOS BRANCH LIBRARY,MADERA,93636,Madera,36.92471,-119.86895,Library
BOLINAS LIBRARY,BOLINAS,94924,Marin,37.90951,-122.68579,Library
CIVIC CENTER LIBRARY,SAN RAFAEL,94903,Marin,37.99793,-122.53066,Library
CORTE MADERA LIBRARY,CORTE MADERA,94925,Marin,37.92414,-122.51811,Library
FAIRFAX LIBRARY,FAIRFAX,94930,Marin,37.99016,-122.59272,Library
INVERNESS LIBRARY,INVERNESS,94937,Marin,38.09727,-122.85331,Library
MARIN CITY LIBRARY,MARIN CITY,94965,Marin,37.87322,-122.51157,Library
NOVATO LIBRARY,NOVATO,94947,Marin,38.1072,-122.58009,Library
POINT REYES STATION LIBRARY,POINT REYES STATION,94956,Marin,38.06961,-122.80656,Library
SOUTH NOVATO LIBRARY,NOVATO,94949,Marin,38.05734,-122.52552,Library
STINSON BEACH LIBRARY,STINSON BEACH,94970,Marin,37.89839,-122.6404,Library
BASSETT MEMORIAL LIBRARY IN WAWONA,WAWONA,95389,Mariposa,37.5472,-119.64614,Library
EL PORTAL LIBRARY,EL PORTAL,95318,Mariposa,37.67326,-119.80663,Library
MARIPOSA LIBRARY,MARIPOSA,95338,Mariposa,37.48949,-119.96748,Library
RED CLOUD LIBRARY,COULTERVILLE,95311,Mariposa,37.74616,-120.13121,Library
YOSEMITE LIBRARY,YOSEMITE NATIONAL PA,95389,Mariposa,37.8651,-119.53833,Library
COAST COMMUNITY LIBRARY,POINT ARENA,95468,Mendocino,38.90942,-123.69198,Library
FORT BRAGG BRANCH LIBRARY,FT BRAGG,95437,Mendocino,39.4457,-123.80113,Library
ROUND VALLEY PUBLIC LIBRARY,COVELO,95428,Mendocino,39.79399,-123.2498,Library
UKIAH BRANCH LIBRARY,UKIAH,95482,Mendocino,39.1502,-123.2066,Library
WILLITS BRANCH LIBRARY,WILLITS,95490,Mendocino,39.41291,-123.3466,Library
BELLE HAVEN BRANCH,MENLO PARK,94025,San Mateo,37.47625,-122.16116,Library
MENLO PARK PUBLIC LIBRARY,MENLO PARK,94025,San Mateo,37.45396,-122.17982,Library
ATWATER BRANCH LIBRARY,ATWATER,95301,Merced,37.35083,-120.60617,Library
DELHI EDUCATIONAL PARK COMMUNITY LIBRARY,DELHI,95315,Merced,37.42792,-120.77914,Library
DOS PALOS BRANCH LIBRARY,DOS PALOS,93620,Merced,36.98489,-120.62783,Library
GUSTINE BRANCH LIBRARY,GUSTINE,95322,Merced,37.25787,-121.00208,Library
IRWIN-HILMAR BRANCH LIBRARY,HILMAR,95324,Merced,37.40318,-120.85114,Library
LE GRAND BRANCH LIBRARY,LE GRAND,95333,Merced,37.22842,-120.254,Library
LIVINGSTON BRANCH LIBRARY,LIVINGSTON,95334,Merced,37.37946,-120.72372,Library
LOS BANOS BRANCH LIBRARY,LOS BANOS,93635,Merced,37.0563,-120.84725,Library
MERCED COUNTY LIBRARY,MERCED,95340,Merced,37.30688,-120.48499,Library
SANTA NELLA BRANCH LIBRARY,GUSTINE,95322,Merced,37.09385,-121.01932,Library
SNELLING BRANCH LIBRARY,SNELLING,95369,Merced,37.51951,-120.4376,Library
WINTON BRANCH LIBRARY,WINTON,95388,Merced,37.38926,-120.61455,Library
MILL VALLEY PUBLIC LIBRARY,MILL VALLEY,94941,Marin,37.90597,-122.55413,Library
MISSION VIEJO LIBRARY,MISSION VIEJO,92691,Orange,33.59629,-117.65901,Library
ADIN STATION LIBRARY,ADIN,96006,Modoc,41.19248,-120.94409,Library
CEDARVILLE LIBRARY,CEDARVILLE,96104,Modoc,41.52906,-120.17328,Library
LOOKOUT LIBRARY,LOOKOUT,96054,Modoc,41.20819,-121.15018,Library
MODOC COUNTY LIBRARY,ALTURAS,96101,Modoc,41.48636,-120.54429,Library
BENTON LIBRARY,BENTON,93512,Mono,37.81683,-118.47709,Library
BRIDGEPORT LIBRARY,BRIDGEPORT,93517,Mono,38.2572,-119.22904,Library
COLEVILLE LIBRARY,COLEVILLE,96107,Mono,38.56846,-119.50946,Library
CROWLEY COMMUNITY LIBRARY,CROWLEY LAKE,93546,Mono,37.56907,-118.75216,Library
JUNE LAKE LIBRARY,JUNE LAKE,93529,Mono,37.77773,-119.07747,Library
LEE VINING LIBRARY,LEE VINING,93541,Mono,37.95759,-119.11994,Library
MAMMOTH LAKES LIBRARY,MAMMOTH LAKES,93546,Mono,37.63976,-118.96328,Library
MONROVIA PUBLIC LIBRARY,MONROVIA,91016,Los Angeles,34.1486,-118.00223,Library
AROMAS BRANCH LIBRARY,AROMAS,95004,Monterey,36.88871,-121.64374,Library
BIG SUR BRANCH LIBRARY,BIG SUR,93920,Monterey,36.26472,-121.80111,Library
BUENA VISTA BRANCH LIBRARY,SALINAS,93908,Monterey,36.60573,-121.64781,Library
CARMEL VALLEY BRANCH LIBRARY,CARMEL VALLEY,93924,Monterey,36.4806,-121.73482,Library
CASTROVILLE BRANCH LIBRARY,CASTROVILLE,95012,Monterey,36.76768,-121.75757,Library
GONZALES BRANCH LIBRARY,GONZALES,93926,Monterey,36.51524,-121.43593,Library
GREENFIELD BRANCH LIBRARY,GREENFIELD,93927,Monterey,36.32232,-121.24578,Library
MARINA BRANCH LIBRARY,MARINA,93933,Monterey,36.69142,-121.79965,Library
KING CITY BRANCH LIBRARY,KING CITY,93930,Monterey,36.21234,-121.12799,Library
PAJARO BRANCH LIBRARY,PAJARO,95076,Monterey,36.90153,-121.74953,Library
PARKFIELD BRANCH LIBRARY,SAN MIGUEL,93451,Monterey,35.89563,-120.4341,Library
PRUNEDALE BRANCH LIBRARY,SALINAS,93907,Monterey,36.80314,-121.66245,Library
SAN ARDO BRANCH LIBRARY,SAN ARDO,93450,Monterey,36.0187,-120.9076,Library
SAN LUCAS BRANCH LIBRARY,SAN LUCAS,93954,Monterey,36.12913,-121.01897,Library
SEASIDE BRANCH LIBRARY,SEASIDE,93955,Monterey,36.60318,-121.85255,Library
SOLEDAD BRANCH LIBRARY,SOLDEDAD,93960,Monterey,36.43575,-121.32603,Library
MONTEREY PARK BRUGGEMEYER LIBRARY,MONTEREY PARK,91754,Los Angeles,34.059,-118.12484,Library
MONTEREY PUBLIC LIBRARY,MONTEREY,93940,Monterey,36.59639,-121.89689,Library
MOORPARK CITY LIBRARY,MOORPARK,93021,Ventura,34.28631,-118.88257,Library
MORENO VALLEY PUBLIC LIBRARY,MORENO VALLEY,92553,Riverside,33.91772,-117.21833,Library
MORENO VALLEY MALL BRANCH,MORENO VALLEY,92553,Riverside,33.93886,-117.27018,Library
MORENO VALLEY IRIS PLAZA BRANCH,MORENO VALLEY,92551,Riverside,33.8857,-117.2255,Library
MOUNTAIN VIEW PUBLIC LIBRARY,MOUNTAIN VIEW,94041,Santa Clara,37.39033,-122.08363,Library
MURRIETA PUBLIC LIBRARY,MURRIETA,92562,Riverside,33.55772,-117.21088,Library
AMERICAN CANYON,AMERICAN CANYON,94503,Napa,38.17558,-122.25423,Library
CALISTOGA PUBLIC LIBRARY,CALISTOGA,94515,Napa,38.57612,-122.57994,Library
NAPA MAIN LIBRARY,NAPA,94559,Napa,38.29554,-122.28373,Library
YOUNTVILLE LIBRARY,YOUNTVILLE,94599,Napa,38.40202,-122.3604,Library
NATIONAL CITY PUBLIC LIBRARY,NATIONAL CITY,91950,San Diego,32.6706,-117.10414,Library
BEAR RIVER STATION,GRASS VALLEY,95949,Nevada,39.04688,-121.0748,Library
DORIS FOLEY LIBRARY FOR HISTORICAL RESEARCH,NEVADA CITY,95959,Nevada,39.26375,-121.01897,Library
GRASS VALLEY LIBRARY-ROYCE BRANCH,GRASS VALLEY,95945,Nevada,39.2169,-121.06329,Library
MADELYN HELLING COUNTY LIBRARY,NEVADA CITY,95959,Nevada,39.26983,-121.0241,Library
PENN VALLEY STATION,PENN VALLEY,95946,Nevada,39.22357,-121.20489,Library
TRUCKEE LIBRARY,TRUCKEE,96161,Nevada,39.32564,-120.19985,Library
BALBOA LIBRARY,NEWPORT BEACH,92661,Orange,33.60417,-117.90609,Library
CENTRAL LIBRARY,NEWPORT BEACH,92660,Orange,33.60761,-117.87299,Library
CORONA DEL MAR LIBRARY,CORONA DEL MAR,92625,Orange,33.59601,-117.86953,Library
CREAN MARINERS BRANCH LIBRARY,NEWPORT BEACH,92660,Orange,33.63265,-117.90362,Library
81ST AVENUE BRANCH LIBRARY,OAKLAND,94621,Alameda,37.7534,-122.18569,Library
AFRICAN AMERICAN MUSEUM & LIBRARY AT OAKLAND,OAKLAND,94612,Alameda,37.80612,-122.27633,Library
ASIAN BRANCH LIBRARY,OAKLAND,94607,Alameda,37.80045,-122.2717,Library
BROOKFIELD BRANCH LIBRARY,OAKLAND,94603,Alameda,37.73734,-122.18857,Library
CESAR E. CHAVEZ BRANCH LIBRARY,OAKLAND,94601,Alameda,37.77585,-122.22479,Library
DIMOND BRANCH LIBRARY,OAKLAND,94602,Alameda,37.80146,-122.21604,Library
EASTMONT BRANCH LIBRARY,OAKLAND,94605,Alameda,37.76813,-122.17615,Library
ELMHURST BRANCH LIBRARY,OAKLAND,94621,Alameda,37.75157,-122.17492,Library
GOLDEN GATE BRANCH LIBRARY,OAKLAND,94608,Alameda,37.83919,-122.2822,Library
LAKEVIEW BRANCH LIBRARY,OAKLAND,94610,Alameda,37.8092,-122.24895,Library
MARTIN LUTHER KING JR. BRANCH LIBRARY,OAKLAND,94621,Alameda,37.76061,-122.19079,Library
MELROSE BRANCH LIBRARY,OAKLAND,94601,Alameda,37.77242,-122.20755,Library
MONTCLAIR BRANCH LIBRARY,OAKLAND,94611,Alameda,37.83198,-122.21411,Library
OAKLAND MAIN LIBRARY,OAKLAND,94612,Alameda,37.80098,-122.26361,Library
PIEDMONT AVENUE BRANCH LIBRARY,OAKLAND,94611,Alameda,37.82784,-122.24815,Library
ROCKRIDGE BRANCH LIBRARY,OAKLAND,94618,Alameda,37.83991,-122.25108,Library
TEMESCAL BRANCH LIBRARY,OAKLAND,94609,Alameda,37.8382,-122.26251,Library
WEST OAKLAND BRANCH LIBRARY,OAKLAND,94607,Alameda,37.81293,-122.28529,Library
OCEANSIDE READS LITERACY CENTER,OCEANSIDE,92054,San Diego,33.19867,-117.37877,Library
MISSION BRANCH LIBRARY,OCEANSIDE,92054,San Diego,33.22597,-117.3285,Library
OCEANSIDE PUBLIC LIBRARY,OCEANSIDE,92054,San Diego,33.19753,-117.3805,Library
LEWIS FAMILY BRANCH,ONTARIO,91761,San Bernardino,34.01835,-117.56867,Library
OVITT FAMILY COMMUNITY LIBRARY,ONTARIO,91764,San Bernardino,34.06606,-117.64908,Library
ALISO VIEJO BRANCH LIBRARY,ALISO VIEJO,92656,Orange,33.57006,-117.7268,Library
BREA BRANCH LIBRARY,BREA,92821,Orange,33.91707,-117.88892,Library
COSTA MESA BRANCH LIBRARY,COSTA MESA,92627,Orange,33.64189,-117.9222,Library
CYPRESS BRANCH LIBRARY,CYPRESS,90630,Orange,33.82483,-118.03938,Library
DANA POINT BRANCH LIBRARY,DANA POINT,92629,Orange,33.47694,-117.71603,Library
EL TORO BRANCH LIBRARY,LAKE FOREST,92630,Orange,33.61948,-117.69981,Library
FOOTHILL RANCH BRANCH LIBRARY,FOOTHILL RANCH,92610,Orange,33.6809,-117.65914,Library
FOUNTAIN VALLEY BRANCH LIBRARY,FOUNTAIN VALLEY,92708,Orange,33.70706,-117.95117,Library
CHAPMAN BRANCH LIBRARY,GARDEN GROVE,92841,Orange,33.78823,-117.97199,Library
GARDEN GROVE MAIN LIBRARY,GARDEN GROVE,92840,Orange,33.77736,-117.9373,Library
GARDEN GROVE TIBOR RUBIN BRANCH LIBRARY,GARDEN GROVE,92845,Orange,33.78883,-118.03201,Library
HERITAGE PARK BRANCH LIBRARY,IRVINE,92604,Orange,33.69957,-117.77843,Library
KATIE WHEELER BRANCH LIBRARY,IRVINE,92602,Orange,33.72985,-117.7855,Library
LA HABRA BRANCH LIBRARY,LA HABRA,90631,Orange,33.93258,-117.94421,Library
LA PALMA BRANCH LIBRARY,LA PALMA,90623,Orange,33.84863,-118.03677,Library
LADERA RANCH BRANCH LIBRARY,LADERA RANCH,92694,Orange,33.5535,-117.63703,Library
LAGUNA BEACH BRANCH LIBRARY,LAGUNA BEACH,92651,Orange,33.54209,-117.78248,Library
LAGUNA HILLS TECHNOLOGY LIBRARY,LAGUNA HILLS,92653,Orange,33.59187,-117.70027,Library
LAGUNA NIGUEL BRANCH LIBRARY,LAGUNA NIGUEL,92677,Orange,33.52252,-117.71695,Library
LAGUNA WOODS LIBRARY,LAGUNA WOODS,91637,Orange,33.61047,-117.72336,Library
LIBRARY OF THE CANYONS,SILVERADO,92676,Orange,33.74346,-117.66764,Library
LOS ALAMITOS-ROSSMOOR BRANCH LIBRARY,SEAL BEACH,90740,Orange,33.78085,-118.0755,Library
MESA VERDE BRANCH LIBRARY,COSTA MESA,92626,Orange,33.6792,-117.92744,Library
RANCHO SANTA MARGARITA BRANCH LIBRARY,RANCHO SANTA MARGARI,92688,Orange,33.64062,-117.59241,Library
SAN CLEMENTE BRANCH LIBRARY,SAN CLEMENTE,92672,Orange,33.42473,-117.61713,Library
SAN JUAN CAPISTRANO REGIONAL LIBRARY,SAN JUAN CAPISTRANO,92675,Orange,33.50526,-117.66333,Library
MARY WILSON BRANCH LIBRARY,SEAL BEACH,90740,Orange,33.74365,-118.10483,Library
STANTON BRANCH LIBRARY,STANTON,90680,Orange,33.80257,-117.99578,Library
TUSTIN BRANCH LIBRARY,TUSTIN,92780,Orange,33.74278,-117.82079,Library
UNIVERSITY PARK BRANCH LIBRARY,IRVINE,92612,Orange,33.66067,-117.82075,Library
VILLA PARK BRANCH LIBRARY,VILLA PARK,92861,Orange,33.81416,-117.8199,Library
WESTMINSTER BRANCH LIBRARY,WESTMINSTER,92683,Orange,33.7552,-117.98649,Library
EL MODENA BRANCH LIBRARY,ORANGE,92869,Orange,33.78221,-117.80618,Library
ORANGE PUBLIC LIBRARY & HISTORY CENTER,ORANGE,92866,Orange,33.78825,-117.84955,Library
TAFT BRANCH LIBRARY,ORANGE,92865,Orange,33.81552,-117.84575,Library
ORLAND FREE LIBRARY,ORLAND,95963,Glenn,39.74489,-122.19363,Library
COLONIA BRANCH LIBRARY,OXNARD,93030,Ventura,34.20583,-119.16314,Library
OXNARD PUBLIC LIBRARY,OXNARD,93030,Ventura,34.20098,-119.1789,Library
SOUTH OXNARD BRANCH LIBRARY,OXNARD,93033,Ventura,34.16066,-119.17731,Library
PACIFIC GROVE PUBLIC LIBRARY,PACIFIC GROVE,93950,Monterey,36.62233,-121.91629,Library
PALM SPRINGS PUBLIC LIBRARY,PALM SPRINGS,92262,Riverside,33.81872,-116.52753,Library
WELWOOD MURRAY MEMORIAL LIBRARY,PALM SPRINGS,92262,Riverside,33.82293,-116.54659,Library
PALMDALE CITY LIBRARY,PALMDALE,93550,Los Angeles,34.57911,-118.11606,Library
PALO ALTO CHILDREN`S LIBRARY,PALO ALTO,94301,Santa Clara,37.44479,-122.1452,Library
COLLEGE TERRACE LIBRARY,PALO ALTO,94306,Santa Clara,37.42336,-122.14866,Library
PALO ALTO DOWNTOWN BRANCH,PALO ALTO,94301,Santa Clara,37.44386,-122.15913,Library
MITCHELL PARK BRANCH,PALO ALTO,94303,Santa Clara,37.41805,-122.10771,Library
RINCONADA LIBRARY,PALO ALTO,94303,Santa Clara,37.44497,-122.13916,Library
PALO VERDE VALLEY LIBRARY DISTRICT,BLYTHE,92225,Riverside,33.61785,-114.59772,Library
MALAGA COVE LIBRARY,PALOS VERDES ESTATES,90274,Los Angeles,33.79863,-118.38915,Library
MIRALESTE LIBRARY,RANCHO PALOS VERDES,90275,Los Angeles,33.75585,-118.33005,Library
PENINSULA CENTER LIBRARY,ROLLING HILLS ESTATE,90274,Los Angeles,33.77077,-118.37076,Library
THE ANNEX,ROLLING HILLS ESTATE,90274,Los Angeles,33.7711132,-118.3713384,Library
ALLENDALE BRANCH LIBRARY,PASADENA,91106,Los Angeles,34.12618,-118.1452,Library
HASTINGS BRANCH LIBRARY,PASADENA,91107,Los Angeles,34.15828,-118.08206,Library
HILL AVE. BRANCH LIBRARY,PASADENA,91106,Los Angeles,34.14508,-118.12189,Library
LA PINTORESCA BRANCH LIBRARY,PASADENA,91103,Los Angeles,34.16927,-118.14962,Library
LAMANDA PARK BRANCH LIBRARY,PASADENA,91107,Los Angeles,34.14344,-118.09834,Library
LINDA VISTA BRANCH LIBRARY,PASADENA,91103,Los Angeles,34.16999,-118.17766,Library
PASADENA CENTRAL LIBRARY,PASADENA,91101,Los Angeles,34.15,-118.14441,Library
SAN RAFAEL BRANCH LIBRARY,PASADENA,91105,Los Angeles,34.13572,-118.17576,Library
SANTA CATALINA BRANCH LIBRARY,PASADENA,91104,Los Angeles,34.16929,-118.12987,Library
VILLA PARKE COMMUNITY CENTER LIBRARY,PASADENA,91101,Los Angeles,34.15457,-118.1429,Library
LIBRARY STUDY CENTER,PASO ROBLES,93446,San Luis Obispo,35.652,-120.69453,Library
PASO ROBLES PUBLIC LIBRARY,PASO ROBLES,93446,San Luis Obispo,35.62539,-120.69058,Library
PLACENTIA LIBRARY DISTRICT,PLACENTIA,92870,Orange,33.87153,-117.86091,Library
APPLEGATE LIBRARY,APPLEGATE,95703,Placer,38.99988,-120.99037,Library
AUBURN LIBRARY,AUBURN,95603,Placer,38.90517,-121.08074,Library
COLFAX LIBRARY,COLFAX,95713,Placer,39.09932,-120.95415,Library
FORESTHILL LIBRARY,FORESTHILL,95631,Placer,39.02003,-120.81656,Library
GRANITE BAY LIBRARY,GRANITE BAY,95746,Placer,38.74423,-121.18066,Library
KINGS BEACH LIBRARY,KINGS BEACH,96143,Placer,39.23866,-120.03016,Library
PENRYN LIBRARY,PENRYN,95663,Placer,38.85195,-121.16936,Library
ROCKLIN LIBRARY,ROCKLIN,95677,Placer,38.78912,-121.22694,Library
TAHOE CITY LIBRARY,TAHOE CITY,96145,Placer,39.17277,-120.13825,Library
PLEASANTON PUBLIC LIBRARY,PLEASANTON,94566,Alameda,37.65753,-121.88063,Library
ALLEGHANY STATION LIBRARY,ALLEGHANY,95910,Sierra,39.46923,-120.84299,Library
CHESTER BRANCH LIBRARY,CHESTER,96020,Plumas,40.30937,-121.22711,Library
DOWNIEVILLE STATION LIBRARY,DOWNIEVILLE,95936,Sierra,39.55932,-120.82784,Library
GREENVILLE BRANCH LIBRARY,GREENVILLE,95947,Plumas,40.14015,-120.95207,Library
LOYALTON STATION LIBRARY,LOYALTON,96118,Sierra,39.67631,-120.24346,Library
PLUMAS COUNTY LIBRARY,QUINCY,95971,Plumas,39.93613,-120.94698,Library
PORTOLA BRANCH LIBRARY,PORTOLA,96122,Plumas,39.80532,-120.46586,Library
SIERRA CITY STATION LIBRARY,SIERRA CITY,96125,Sierra,39.56596,-120.63378,Library
POMONA PUBLIC LIBRARY,POMONA,91766,Los Angeles,34.05386,-117.75062,Library
PORTERVILLE PUBLIC LIBRARY,PORTERVILLE,93257,Tulare,36.06787127,-119.0167768,Library
PAUL A. BIANE LIBRARY,RANCHO CUCAMONGA,91739,San Bernardino,34.11307,-117.5328,Library
ARCHIBALD LIBRARY,RANCHO CUCAMONGA,91730,San Bernardino,34.12012,-117.59402,Library
RANCHO MIRAGE PUBLIC LIBRARY,RANCHO MIRAGE,92270,Riverside,33.74848,-116.42128,Library
REDONDO BEACH NORTH BRANCH LIBRARY,REDONDO BEACH,90278,Los Angeles,33.87254,-118.37678,Library
REDONDO BEACH PUBLIC LIBRARY,REDONDO BEACH,90277,Los Angeles,33.84604,-118.38806,Library
REDWOOD CITY PUBLIC LIBRARY,REDWOOD CITY,94063,San Mateo,37.4839,-122.22739,Library
REDWOOD SHORES BRANCH LIBRARY,REDWOOD CITY,94065,San Mateo,37.53037,-122.25861,Library
SCHABERG BRANCH LIBRARY,REDWOOD CITY,94061,San Mateo,37.46649,-122.2431,Library
BAYVIEW BRANCH LIBRARY,RICHMOND,94804,Contra Costa,37.91519,-122.32382,Library
RICHMOND PUBLIC LIBRARY,RICHMOND,94804,Contra Costa,37.93595,-122.34396,Library
WEST SIDE BRANCH LIBRARY,RICHMOND,94801,Contra Costa,37.92729,-122.38433,Library
ANZA VALLEY COMMUNITY LIBRARY,ANZA,92539,Riverside,33.57024,-116.65979,Library
CABAZON LIBRARY,CABAZON,92230,Riverside,33.91042,-116.78098,Library
CALIMESA LIBRARY,CALIMESA,92320,Riverside,34.00181,-117.06169,Library
CANYON LAKE BRANCH LIBRARY,CANYON LAKE,92587,Riverside,33.67256,-117.25148,Library
CATHEDRAL CITY BRANCH LIBRARY,CATHEDRAL CITY,92234,Riverside,33.80426,-116.45729,Library
COACHELLA BRANCH LIBRARY,COACHELLA,92236,Riverside,33.67869,-116.17622,Library
DESERT HOT SPRINGS BRANCH LIBRARY,DESERT HOT SPRINGS,92240,Riverside,33.96312,-116.51071,Library
EASTVALE COMMUNITY LIBRARY,EASTVALE,92880,Riverside,33.95306,-117.56859,Library
EL CERRITO PUBLIC LIBRARY,CORONA,92881,Riverside,33.83545,-117.52659,Library
FRENCH VALLEY LIBRARY,WINCHESTER,92596,Riverside,33.60863,-117.10909,Library
GLEN AVON BRANCH LIBRARY,RIVERSIDE,92509,Riverside,34.0038,-117.48454,Library
GRACE MELLMAN LIBRARY,TEMECULA,92591,Riverside,33.52667,-117.16062,Library
HIGHGROVE BRANCH LIBRARY,RIVERSIDE,92507,Riverside,34.01541,-117.32322,Library
HOME GARDENS LIBRARY,CORONA,92879,Riverside,33.87508,-117.52541,Library
IDYLLWILD BRANCH LIBRARY,IDYLLWILD,92549,Riverside,33.74369,-116.71378,Library
MAX T. MCCANDLESS BRANCH LIBRARY INDIO,INDIO,92201,Riverside,33.71899,-116.21874,Library
LA QUINTA BRANCH LIBRARY,LA QUINTA,92253,Riverside,33.6781,-116.2992,Library
ALTHA MERRIFIELD - LAKE ELSINORE BRANCH LIBRARY,LAKE ELSINORE,92530,Riverside,33.66957,-117.33418,Library
LAKE TAMARISK LIBRARY,DESERT CENTER,92239,Riverside,33.738,-115.39228,Library
VICK KNIGHT COMMUNITY LIBRARY,LAKE ELSINORE,92530,Riverside,33.67012,-117.3806,Library
ROBIDOUX BRANCH LIBRARY,RIVERSIDE,92509,Riverside,33.99977,-117.41457,Library
MEAD VALLEY PUBLIC LIBRARY,PERRIS,92570,Riverside,33.83396,-117.28676,Library
MECCA-NORTH SHORE BRANCH LIBRARY,MECCA,92254,Riverside,33.5696,-116.07394,Library
MENIFEE LIBRARY,MENIFEE,92584,Riverside,33.67582,-117.15935,Library
NORCO BRANCH LIBRARY,NORCO,92860,Riverside,33.92926,-117.55944,Library
NUVIEW BRANCH LIBRARY,NUEVO,92567,Riverside,33.82403,-117.12894,Library
PALM DESERT BRANCH LIBRARY,PALM DESERT,92260,Riverside,33.72999,-116.38628,Library
PERRIS BRANCH LIBRARY,PERRIS,92570,Riverside,33.786,-117.22745,Library
SAN JACINTO BRANCH LIBRARY,SAN JACINTO,92583,Riverside,33.78222,-116.95866,Library
SUN CITY BRANCH LIBRARY,SUN CITY,92586,Riverside,33.71168,-117.18961,Library
TEMECULA PUBLIC LIBRARY,TEMECULA,92592,Riverside,33.49696,-117.12289,Library
THOUSAND PALMS LIBRARY,THOUSAND PALMS,92276,Riverside,33.82335,-116.39738,Library
VALLE VISTA LIBRARY,HEMET,92544,Riverside,33.74757,-116.89368,Library
WILDOMAR LIBRARY,WILDOMAR,92595,Riverside,33.62368,-117.29052,Library
WOODCREST COMMUNITY LIBRARY,RIVERSIDE,92504,Riverside,33.87967,-117.37262,Library
ARLANZA BRANCH,RIVERSIDE,92503,Riverside,33.93926,-117.46231,Library
ARLINGTON BRANCH LIBRARY,RIVERSIDE,92503,Riverside,33.91951,-117.44742,Library
CASA BLANCA BRANCH LIBRARY,RIVERSIDE,92504,Riverside,33.93036,-117.39979,Library
EASTSIDE LIBRARY & CYBRARY,RIVERSIDE,92507,Riverside,33.97355,-117.34848,Library
LA SIERRA BRANCH LIBRARY,RIVERSIDE,92505,Riverside,33.9156,-117.48663,Library
MARCY BRANCH LIBRARY,RIVERSIDE,92506,Riverside,33.948,-117.4008,Library
ORANGE TERRACE,RIVERSIDE,92508,Riverside,33.89509,-117.31261,Library
RIVERSIDE PUBLIC MAIN LIBRARY,RIVERSIDE,92501,Riverside,33.98301,-117.37145,Library
MAIDU LIBRARY,ROSEVILLE,95661,Placer,38.73553,-121.25311,Library
MARTHA RILEY COMMUNITY LIBRARY,ROSEVILLE,95747,Placer,38.76751,-121.33203,Library
DOWNTOWN LIBRARY,ROSEVILLE,95678,Placer,38.74616,-121.28465,Library
ARCADE LIBRARY,SACRAMENTO,95821,Sacramento,38.61861,-121.40409,Library
ARDEN-DIMICK LIBRARY,SACRAMENTO,95864,Sacramento,38.58088,-121.3836,Library
CARMICHAEL LIBRARY,CARMICHAEL,95608,Sacramento,38.61765,-121.33423,Library
SACRAMENTO CENTRAL LIBRARY,SACRAMENTO,95814,Sacramento,38.58167,-121.49508,Library
COLONIAL HEIGHTS LIBRARY,SACRAMENTO,95820,Sacramento,38.53256,-121.44531,Library
BELLE COOLEDGE LIBRARY,SACRAMENTO,95822,Sacramento,38.52406,-121.51193,Library
COURTLAND LIBRARY,COURTLAND,95615,Sacramento,38.33063,-121.56637,Library
DEL PASO HEIGHTS LIBRARY,SACRAMENTO,95838,Sacramento,38.63614,-121.44531,Library
ELK GROVE LIBRARY,ELK GROVE,95624,Sacramento,38.40874,-121.37118,Library
FAIR OAKS LIBRARY,FAIR OAKS,95628,Sacramento,38.66258,-121.26313,Library
FRANKLIN LIBRARY,ELK GROVE,95757,Sacramento,38.39202,-121.43147,Library
MARIAN O. LAWRENCE (GALT) LIBRARY,GALT,95632,Sacramento,38.25113,-121.29585,Library
ISLETON BRANCH LIBRARY,ISLETON,95641,Sacramento,38.16163,-121.60866,Library
MARTIN LUTHER KING JR. LIBRARY,SACRAMENTO,95822,Sacramento,38.49122,-121.48088,Library
ELLA K. MCCLATCHY LIBRARY,SACRAMENTO,95818,Sacramento,38.56351,-121.48292,Library
MCKINLEY LIBRARY,SACRAMENTO,95816,Sacramento,38.57678,-121.4628,Library
NORTH HIGHLANDS-ANTELOPE LIBRARY,ANTELOPE,95843,Sacramento,38.70464,-121.36479,Library
NORTH NATOMAS LIBRARY,SACRAMENTO,95835,Sacramento,38.65746,-121.51799,Library
NORTH SACRAMENTO/HAGGINWOOD LIBRARY,SACRAMENTO,95815,Sacramento,38.61009,-121.4514,Library
ORANGEVALE LIBRARY,ORANGEVALE,95662,Sacramento,38.6778,-121.22966,Library
POCKET-GREENHAVEN,SACRAMENTO,95831,Sacramento,38.4937,-121.5368,Library
RANCHO CORDOVA LIBRARY,SACRAMENTO,95827,Sacramento,38.57655,-121.3292,Library
RIO LINDA LIBRARY,RIO LINDA,95673,Sacramento,38.68942,-121.45159,Library
SOUTH NATOMAS LIBRARY,SACRAMENTO,95833,Sacramento,38.61892,-121.50009,Library
SOUTHGATE LIBRARY,SACRAMENTO,95823,Sacramento,38.49204,-121.4337,Library
SYLVAN OAKS LIBRARY,CITRUS HEIGHTS,95621,Sacramento,38.68664,-121.3075,Library
VALLEY-HI NORTH LAGUNA LIBRARY,SACRAMENTO,95823,Sacramento,38.45237,-121.41735,Library
WALNUT GROVE LIBRARY,WALNUT GROVE,95690,Sacramento,38.24078,-121.51402,Library
CESAR CHAVEZ LIBRARY,SALINAS,93905,Monterey,36.68046,-121.60685,Library
EL GABILAN LIBRARY,SALINAS,93906,Monterey,36.70506,-121.65251,Library
JOHN STEINBECK LIBRARY,SALINAS,93901,Monterey,36.67202,-121.65729,Library
SAN ANSELMO PUBLIC LIBRARY,SAN ANSELMO,94960,Marin,37.97446,-122.56299,Library
SAN BENITO COUNTY FREE LIBRARY,HOLLISTER,95023,San Benito,36.85178,-121.40512,Library
ADELANTO BRANCH LIBRARY,ADELANTO,92301,San Bernardino,34.57856,-117.41464,Library
NEWTON T. BASS APPLE VALLEY BRANCH LIBRARY,APPLE VALLEY,92307,San Bernardino,34.52438,-117.2152,Library
BARSTOW BRANCH LIBRARY,BARSTOW,92311,San Bernardino,34.89527,-117.02428,Library
BIG BEAR LAKE BRANCH LIBRARY,BIG BEAR LAKE,92315,San Bernardino,34.24641,-116.88726,Library
BLOOMINGTON BRANCH LIBRARY,BLOOMINGTON,92316,San Bernardino,34.07087,-117.41101,Library
CAL AERO PRESERVE ACADEMY BRANCH LIBRARY,CHINO,91708,San Bernardino,33.96535,-117.62343,Library
CARTER BRANCH LIBRARY,RIALTO,92377,San Bernardino,34.14813,-117.40361,Library
CHINO BRANCH LIBRARY,CHINO,91710,San Bernardino,34.01396,-117.68973,Library
CHINO HILLS,CHINO HILLS,91709,San Bernardino,33.99744,-117.73046,Library
CRESTLINE BRANCH LIBRARY,CRESTLINE,92325,San Bernardino,34.24199,-117.27703,Library
FONTANA LEWIS LIBRARY AND TECHNOLOGY CENTER,FONTANA,92335,San Bernardino,34.1008,-117.43517,Library
GRAND TERRACE BRANCH LIBRARY,GRAND TERRACE,92313,San Bernardino,34.03517,-117.30697,Library
HESPERIA BRANCH LIBRARY,HESPERIA,92345,San Bernardino,34.42645,-117.31656,Library
HIGHLAND SAM J. RACADIO LIBRARY AND ENVIRONMENTAL LEARNING C,HIGHLAND,92346,San Bernardino,34.11064,-117.21658,Library
JOSHUA TREE BRANCH LIBRARY,JOSHUA TREE,92252,San Bernardino,34.1356,-116.31495,Library
KAISER BRANCH LIBRARY,FONTANA,92337,San Bernardino,34.05063,-117.49252,Library
LAKE ARROWHEAD BRANCH LIBRARY,BLUE JAY,92317,San Bernardino,34.24641,-117.20923,Library
LOMA LINDA BRANCH LIBRARY,LOMA LINDA,92354,San Bernardino,34.04723,-117.24637,Library
JANICE HORST LUCERNE VALLEY BRANCH LIBRARY,LUCERNE VALLEY,92356,San Bernardino,34.4436,-116.94111,Library
MENTONE SENIOR CENTER AND LIBRARY,MENTONE,92359,San Bernardino,34.07091,-117.13419,Library
MONTCLAIR BRANCH LIBRARY,MONTCLAIR,91763,San Bernardino,34.07282,-117.69326,Library
MUSCOY BAKER FAMILY LEARNING CENTER,MUSCOY,92407,San Bernardino,34.14732,-117.34038,Library
NEEDLES BRANCH LIBRARY,NEEDLES,92363,San Bernardino,34.83457,-114.61786,Library
PHELAN MEMORIAL LIBRARY,PHELAN,92371,San Bernardino,34.42844,-117.57536,Library
RIALTO BRANCH LIBRARY,RIALTO,92376,San Bernardino,34.10029,-117.374,Library
RUNNING SPRINGS BRANCH LIBRARY,RUNNING SPRINGS,92382,San Bernardino,34.20635,-117.10478,Library
SUMMIT BRANCH LIBRARY,FONTANA,92336,San Bernardino,34.14826,-117.46441,Library
TRONA BRANCH LIBRARY,TRONA,93562,San Bernardino,35.75773,-117.37875,Library
TWENTYNINE PALMS BRANCH LIBRARY,TWENTYNINE PALMS,92277,San Bernardino,34.14339,-116.05473,Library
WRIGHTWOOD BRANCH LIBRARY,WRIGHTWOOD,92397,San Bernardino,34.35973,-117.63504,Library
YUCAIPA BRANCH LIBRARY,YUCAIPA,92399,San Bernardino,34.03503,-117.05668,Library
YUCCA VALLEY BRANCH LIBRARY,YUCCA VALLEY,92284,San Bernardino,34.12258,-116.4182,Library
DOROTHY INGHRAM BRANCH LIBRARY,SAN BERNARDINO,92411,San Bernardino,34.13543,-117.31858,Library
HOWARD M. ROWE BRANCH LIBRARY,SAN BERNARDINO,92404,San Bernardino,34.14978,-117.28474,Library
NORMAN F. FELDHEYM LIBRARY,SAN BERNARDINO,92410,San Bernardino,34.10958,-117.2954,Library
PAUL VILLASENOR BRANCH LIBRARY,SAN BERNARDINO,92411,San Bernardino,34.10891,-117.31358,Library
SAN BRUNO PUBLIC LIBRARY,SAN BRUNO,94066,San Mateo,37.62521,-122.41492,Library
4S RANCH,SAN DIEGO,92127,San Diego,33.02112,-117.11439,Library
ALPINE LIBRARY,ALPINE,91901,San Diego,32.83785,-116.77617,Library
BONITA-SUNNYSIDE LIBRARY,BONITA,91902,San Diego,32.66143,-117.03431,Library
BORREGO SPRINGS LIBRARY,BORREGO SPRINGS,92004,San Diego,33.25607,-116.38006,Library
CAMPO-MORENA VILLAGE LIBRARY,CAMPO,91906,San Diego,32.6244,-116.4754,Library
CARDIFF LIBRARY,CARDIFF,92007,San Diego,33.02203,-117.28144,Library
CASA DE ORO LIBRARY,SPRING VALLEY,91977,San Diego,32.74708,-116.98515,Library
CREST LIBRARY,EL CAJON,92021,San Diego,32.80397,-116.86752,Library
DEL MAR LIBRARY,DEL MAR,92014,San Diego,32.95787,-117.26426,Library
DESCANSO LIBRARY,DESCANSO,91916,San Diego,32.85925,-116.61478,Library
EL CAJON LIBRARY,EL CAJON,92020,San Diego,32.7931,-116.96068,Library
ENCINITAS LIBRARY,ENCINITAS,92024,San Diego,33.04561,-117.29088,Library
FALLBROOK LIBRARY,FALLBROOK,92028,San Diego,33.38142,-117.25324,Library
FLETCHER HILLS LIBRARY,EL CAJON,92020,San Diego,32.80188,-116.99777,Library
IMPERIAL BEACH LIBRARY,IMPERIAL BEACH,91932,San Diego,32.57683,-117.11632,Library
JACUMBA LIBRARY,JACUMBA,91934,San Diego,32.61733,-116.18713,Library
JULIAN LIBRARY,JULIAN,92036,San Diego,33.07699,-116.59651,Library
LA MESA LIBRARY,LA MESA,91942,San Diego,32.76623,-117.02328,Library
LAKESIDE LIBRARY,LAKESIDE,92040,San Diego,32.8588,-116.92055,Library
LEMON GROVE LIBRARY,LEMON GROVE,91945,San Diego,32.73866,-117.02936,Library
LINCOLN ACRES LIBRARY,NATIONAL CITY,91950,San Diego,32.66661,-117.07141,Library
PINE VALLEY LIBRARY,PINE VALLEY,91962,San Diego,32.82368,-116.53135,Library
POTRERO LIBRARY,POTRERO,91963,San Diego,32.61123,-116.61263,Library
POWAY LIBRARY,POWAY,92064,San Diego,32.95599,-117.0458,Library
RAMONA LIBRARY,RAMONA,92065,San Diego,33.03997,-116.87314,Library
RANCHO SAN DIEGO LIBRARY,EL CAJON,92019,San Diego,32.74941,-116.92902,Library
RANCHO SANTA FE LIBRARY,RANCHO SANTA FE,92067,San Diego,33.021,-117.20555,Library
SAN MARCOS LIBRARY,SAN MARCOS,92069,San Diego,33.14124,-117.16053,Library
SANTEE LIBRARY,SANTEE,92071,San Diego,32.84504,-116.99741,Library
SOLANA BEACH LIBRARY,SOLANA BEACH,92075,San Diego,32.99443,-117.2626,Library
SPRING VALLEY LIBRARY,SPRING VALLEY,91977,San Diego,32.71231,-117.0024,Library
VALLEY CENTER LIBRARY,VALLEY CENTER,92082,San Diego,33.24255,-117.02446,Library
VISTA LIBRARY,VISTA,92084,San Diego,33.20192,-117.23264,Library
ALLIED GARDENS / BENJAMIN BRANCH LIBRARY,SAN DIEGO,92120,San Diego,32.79311,-117.08148,Library
BALBOA BRANCH LIBRARY,SAN DIEGO,92117,San Diego,32.82236,-117.17495,Library
MOUNTAIN VIEW/BECKWOURTH BRANCH LIBRARY,SAN DIEGO,92113,San Diego,32.69803,-117.10262,Library
CARMEL MOUNTAIN RANCH BRANCH LIBRARY,SAN DIEGO,92128,San Diego,32.98166,-117.07375,Library
CARMEL VALLEY BRANCH LIBRARY,SAN DIEGO,92130,San Diego,32.95224,-117.23069,Library
CITY HEIGHTS / WEINGART BRANCH,SAN DIEGO,92105,San Diego,32.74745,-117.10037,Library
CLAIREMONT BRANCH LIBRARY,SAN DIEGO,92110,San Diego,32.79363,-117.194,Library
COLLEGE-ROLANDO BRANCH LIBRARY,SAN DIEGO,92115,San Diego,32.76937,-117.0561,Library
KENSINGTON-NORMAL HEIGHTS BRANCH LIBRARY,SAN DIEGO,92116,San Diego,32.76307,-117.10679,Library
LINDA VISTA BRANCH LIBRARY,SAN DIEGO,92111,San Diego,32.78329,-117.17002,Library
LOGAN HEIGHTS BRANCH LIBRARY,SAN DIEGO,92113,San Diego,32.69997,-117.13319,Library
"VALENCIA/MALCOLM X LIBRARY & PERFORMING ARTS CENTER, VALENCI",SAN DIEGO,92114,San Diego,32.71076,-117.08391,Library
MIRA MESA BRANCH LIBRARY,SAN DIEGO,92126,San Diego,32.91522,-117.14266,Library
MISSION HILLS BRANCH LIBRARY,SAN DIEGO,92103,San Diego,32.7496,-117.17196,Library
MISSION VALLEY,SAN DIEGO,92108,San Diego,32.77926,-117.12689,Library
NORTH CLAIREMONT BRANCH LIBRARY,SAN DIEGO,92117,San Diego,32.82837,-117.2065,Library
NORTH PARK BRANCH LIBRARY,SAN DIEGO,92104,San Diego,32.7472,-117.1268,Library
NORTH UNIVERSITY COMMUNITY BRANCH LIBRARY,SAN DIEGO,92122,San Diego,32.86762,-117.19917,Library
OAK PARK BRANCH LIBRARY,SAN DIEGO,92105,San Diego,32.73505,-117.08008,Library
OCEAN BEACH BRANCH LIBRARY,SAN DIEGO,92107,San Diego,32.74548,-117.24722,Library
OTAY MESA-NESTOR BRANCH LIBRARY,SAN DIEGO,92154,San Diego,32.57668,-117.06796,Library
PACIFIC BEACH / EARL & BIRDIE TAYLOR BRANCH LIBRARY,SAN DIEGO,92109,San Diego,32.79421,-117.24993,Library
PARADISE HILLS BRANCH LIBRARY,SAN DIEGO,92139,San Diego,32.67267,-117.06118,Library
POINT LOMA/HERVEY BRANCH LIBRAY,SAN DIEGO,92107,San Diego,32.74012,-117.22944,Library
RANCHO BERNARDO BRANCH LIBRARY,SAN DIEGO,92128,San Diego,33.02492,-117.07541,Library
RANCHO PENASQUITOS BRANCH LIBRARY,SAN DIEGO,92129,San Diego,32.95946,-117.12209,Library
LA JOLLA / RIFORD BRANCH LIBRARY,LA JOLLA,92037,San Diego,32.84092,-117.27615,Library
SAN CARLOS BRANCH LIBRARY,SAN DIEGO,92119,San Diego,32.802,-117.04057,Library
SAN DIEGO CENTRAL LIBRARY,SAN DIEGO,92101,San Diego,32.70821,-117.15428,Library
SAN YSIDRO BRANCH LIBRARY,SAN DIEGO,92173,San Diego,32.55813,-117.04348,Library
SCRIPPS MIRAMAR RANCH LIBRARY CENTER,SAN DIEGO,92131,San Diego,32.91124,-117.10532,Library
SERRA MESA BRANCH LIBRARY,SAN DIEGO,92123,San Diego,32.80919,-117.13367,Library
SKYLINE HILLS BRANCH LIBRARY,SAN DIEGO,92139,San Diego,32.69715,-117.02661,Library
TIERRASANTA BRANCH LIBRARY,SAN DIEGO,92124,San Diego,32.82083,-117.09805,Library
UNIVERSITY COMMUNITY BRANCH LIBRARY,SAN DIEGO,92122,San Diego,32.85403,-117.20096,Library
UNIVERSITY HEIGHTS BRANCH LIBRARY,SAN DIEGO,92103,San Diego,32.75384,-117.14591,Library
ANZA BRANCH LIBRARY,SAN FRANCISCO,94121,San Francisco,37.7786,-122.49727,Library
BAYVIEW LINDA BROOKS-BURTON BRANCH LIBRARY,SAN FRANCISCO,94124,San Francisco,37.73255,-122.3912,Library
BERNAL HEIGHTS BRANCH LIBRARY,SAN FRANCISCO,94110,San Francisco,37.73886,-122.41613,Library
CHINATOWN - HIM MARK LAI BRANCH LIBRARY,SAN FRANCISCO,94108,San Francisco,37.79521,-122.41023,Library
EUREKA VALLEY - HARVEY MILK MEMORIAL BRANCH LIBRARY,SAN FRANCISCO,94114,San Francisco,37.75614,-122.43257,Library
EXCELSIOR BRANCH LIBRARY,SAN FRANCISCO,94112,San Francisco,37.72713,-122.43335,Library
GLEN PARK BRANCH LIBRARY,SAN FRANCISCO,94131,San Francisco,37.73396,-122.43369,Library
GOLDEN GATE VALLEY BRANCH LIBRARY,SAN FRANCISCO,94123,San Francisco,37.79681,-122.42905,Library
INGLESIDE BRANCH LIBRARY,SAN FRANCISCO,94112,San Francisco,37.72415,-122.45626,Library
MARINA BRANCH LIBRARY,SAN FRANCISCO,94123,San Francisco,37.80132,-122.43415,Library
MERCED BRANCH LIBRARY,SAN FRANCISCO,94132,San Francisco,37.72671,-122.47448,Library
MISSION BRANCH LIBRARY,SAN FRANCISCO,94110,San Francisco,37.75197,-122.41987,Library
MISSION BAY BRANCH LIBRARY,SAN FRANCISCO,94158,San Francisco,37.77543,-122.39312,Library
NOE VALLEY - SALLY BRUNN BRANCH LIBRARY,SAN FRANCISCO,94114,San Francisco,37.75027,-122.43509,Library
NORTH BEACH BRANCH LIBRARY,SAN FRANCISCO,94133,San Francisco,37.80258,-122.41327,Library
OCEAN VIEW BRANCH LIBRARY,SAN FRANCISCO,94132,San Francisco,37.71415,-122.46599,Library
ORTEGA BRANCH LIBRARY,SAN FRANCISCO,94122,San Francisco,37.7512,-122.4981,Library
PARK BRANCH LIBRARY,SAN FRANCISCO,94117,San Francisco,37.77016,-122.45101,Library
PARKSIDE BRANCH LIBRARY,SAN FRANCISCO,94116,San Francisco,37.74318,-122.47941,Library
PORTOLA BRANCH LIBRARY,SAN FRANCISCO,94134,San Francisco,37.72708,-122.40633,Library
POTRERO BRANCH LIBRARY,SAN FRANCISCO,94107,San Francisco,37.76014,-122.39766,Library
PRESIDIO BRANCH LIBRARY,SAN FRANCISCO,94115,San Francisco,37.78889,-122.44487,Library
RICHMOND - SEN. MILTON MARKS BRANCH LIBRARY,SAN FRANCISCO,94118,San Francisco,37.78184,-122.46817,Library
SAN FRANCISCO MAIN LIBRARY,SAN FRANCISCO,94102,San Francisco,37.77916,-122.41581,Library
SUNSET BRANCH LIBRARY,SAN FRANCISCO,94122,San Francisco,37.76336,-122.47629,Library
VISITACION VALLEY BRANCH LIBRARY,SAN FRANCISCO,94134,San Francisco,37.71243,-122.40792,Library
WEST PORTAL BRANCH LIBRARY,SAN FRANCISCO,94127,San Francisco,37.74138,-122.46621,Library
WESTERN ADDITION BRANCH LIBRARY,SAN FRANCISCO,94115,San Francisco,37.78408,-122.43748,Library
ALMADEN BRANCH LIBRARY,SAN JOSE,95120,Santa Clara,37.2215,-121.86902,Library
ALVISO LIBRARY,SAN JOSE,95002,Santa Clara,37.42462,-121.96904,Library
BASCOM LIBRARY AND COMMUNITY CENTER,SAN JOSE,95128,Santa Clara,37.30763,-121.9314,Library
BERRYESSA LIBRARY,SAN JOSE,95132,Santa Clara,37.39394,-121.84074,Library
BIBLIOTECA LATINOAMERICANA,SAN JOSE,95110,Santa Clara,37.32235,-121.88036,Library
CALABAZAS BRANCH LIBRARY,SAN JOSE,95129,Santa Clara,37.30262,-122.02345,Library
CAMBRIAN LIBRARY,SAN JOSE,95124,Santa Clara,37.26441,-121.91504,Library
DR. ROBERTO CRUZ ALUM ROCK BRANCH LIBRARY,SAN JOSE,95127,Santa Clara,37.36539,-121.82806,Library
EAST SAN JOSE CARNEGIE LIBRARY,SAN JOSE,95116,Santa Clara,37.34647,-121.86822,Library
EDENVALE BRANCH LIBRARY,SAN JOSE,95111,Santa Clara,37.26771,-121.82112,Library
EDUCATIONAL PARK BRANCH LIBRARY,SAN JOSE,95133,Santa Clara,37.36565,-121.85777,Library
EVERGREEN BRANCH LIBRARY,SAN JOSE,95121,Santa Clara,37.3138,-121.79585,Library
HILLVIEW LIBRARY,SAN JOSE,95122,Santa Clara,37.33786,-121.83108,Library
JOYCE ELLINGTON BRANCH LIBRARY,SAN JOSE,95112,Santa Clara,37.34984,-121.88695,Library
"DR. MARTIN LUTHER KING, JR. LIBRARY",SAN JOSE,95112,Santa Clara,37.33569,-121.88526,Library
MT. PLEASANT NEIGHBORHOOD LIBRARY,SAN JOSE,95127,Santa Clara,37.35244,-121.80076,Library
PEARL AVENUE LIBRARY,SAN JOSE,95136,Santa Clara,37.26789,-121.86631,Library
ROSE GARDEN LIBRARY,SAN JOSE,95126,Santa Clara,37.33189,-121.92627,Library
SANTA TERESA LIBRARY,SAN JOSE,95119,Santa Clara,37.2375,-121.79976,Library
SEVEN TREES BRANCH LIBRARY,SAN JOSE,95111,Santa Clara,37.28497,-121.83326,Library
TULLY COMMUNITY BRANCH LIBRARY,SAN JOSE,95111,Santa Clara,37.31142,-121.84092,Library
VILLAGE SQUARE BRANCH LIBRARY,SAN JOSE,95135,Santa Clara,37.31341,-121.77448,Library
VINELAND BRANCH LIBRARY,SAN JOSE,95118,Santa Clara,37.24018,-121.89249,Library
WEST VALLEY LIBRARY,SAN JOSE,95117,Santa Clara,37.30237,-121.97939,Library
WILLOW GLEN BRANCH LIBRARY,SAN JOSE,95125,Santa Clara,37.30294,-121.90006,Library
CARL MARTIN LUCK MEMORIAL LIBRARY,SAN JUAN BAUTISTA,95045,San Benito,36.84751,-121.54052,Library
MANOR BRANCH LIBRARY,SAN LEANDRO,94579,Alameda,37.69147,-122.15265,Library
MULFORD-MARINA BRANCH LIBRARY,SAN LEANDRO,94577,Alameda,37.69785,-122.1823,Library
SAN LEANDRO PUBLIC MAIN LIBRARY,SAN LEANDRO,94577,Alameda,37.72605,-122.15394,Library
SOUTH BRANCH LIBRARY,SAN LEANDRO,94578,Alameda,37.7087,-122.134,Library
ATASCADERO LIBRARY,ATASCADERO,93422,San Luis Obispo,35.48919,-120.66391,Library
CAMBRIA LIBRARY,CAMBRIA,93428,San Luis Obispo,35.56497,-121.09625,Library
CAYUCOS LIBRARY,CAYUCOS,93430,San Luis Obispo,35.4523,-120.90556,Library
CRESTON LIBRARY,CRESTON,93432,San Luis Obispo,35.51886,-120.52362,Library
LOS OSOS LIBRARY,LOS OSOS,93402,San Luis Obispo,35.31325,-120.83756,Library
MORRO BAY LIBRARY,MORRO BAY,93442,San Luis Obispo,35.36716,-120.84626,Library
NIPOMO LIBRARY,NIPOMO,93444,San Luis Obispo,35.02891,-120.49701,Library
OCEANO,OCEANO,93445,San Luis Obispo,35.10257,-120.61236,Library
SAN LUIS OBISPO CITY-COUNTY LIBRARY,SAN LUIS OBISPO,93401,San Luis Obispo,35.28226,-120.66219,Library
SAN MIGUEL LIBRARY,SAN MIGUEL,93451,San Luis Obispo,35.75154,-120.69831,Library
SANTA MARGARITA LIBRARY,SANTA MARGARITA,93453,San Luis Obispo,35.38823,-120.60816,Library
SHANDON LIBRARY,SHANDON,93461,San Luis Obispo,35.65524,-120.37557,Library
SHELL BEACH LIBRARY,SHELL BEACH,93449,San Luis Obispo,35.15465,-120.66964,Library
SOUTH COUNTY LIBRARY,ARROYO GRANDE,93420,San Luis Obispo,35.12454,-120.58974,Library
ATHERTON LIBRARY,ATHERTON,94027,San Mateo,37.46319,-122.19693,Library
BELMONT LIBRARY,BELMONT,94002,San Mateo,37.50882,-122.29318,Library
BRISBANE LIBRARY,BRISBANE,94005,San Mateo,37.68281,-122.40377,Library
EAST PALO ALTO LIBRARY,EAST PALO ALTO,94303,San Mateo,37.47235,-122.13992,Library
FOSTER CITY LIBRARY,FOSTER CITY,94404,San Mateo,37.55867,-122.27073,Library
HALF MOON BAY LIBRARY,HALF MOON BAY,94019,San Mateo,37.46486,-122.43283,Library
MILLBRAE LIBRARY,MILLBRAE,94030,San Mateo,37.60231,-122.39695,Library
NORTH FAIR OAKS LIBRARY,REDWOOD CITY,94063,San Mateo,37.47733,-122.21424,Library
PACIFICA LIBRARY,PACIFICA,94044,San Mateo,37.63217,-122.49193,Library
PORTOLA VALLEY LIBRARY,PORTOLA VALLEY,94028,San Mateo,37.38195,-122.22998,Library
SAN CARLOS LIBRARY,SAN CARLOS,94070,San Mateo,37.50367,-122.26243,Library
SANCHEZ LIBRARY,PACIFICA,94044,San Mateo,37.58445,-122.47635,Library
WOODSIDE LIBRARY,WOODSIDE,94062,San Mateo,37.42919,-122.25808,Library
HILLSDALE BRANCH LIBRARY,SAN MATEO,94403,San Mateo,37.53343,-122.30468,Library
MARINA BRANCH LIBRARY,SAN MATEO,94403,San Mateo,37.55641,-122.29308,Library
SAN MATEO PUBLIC LIBRARY,SAN MATEO,94402,San Mateo,37.56197,-122.32674,Library
NORTHGATE POP-UP LIBRARY,SAN RAFAEL,94903,Marin,38.00422,-122.5442,Library
PICKLEWEED LIBRARY,SAN RAFAEL,94901,Marin,37.96805,-122.49776,Library
SAN RAFAEL PUBLIC LIBRARY,SAN RAFAEL,94901,Marin,37.97503,-122.53261,Library
EL SALVADOR COMMUNITY CENTER,SANTA ANA,92703,Orange,33.7518,-117.89446,Library
GARFIELD COMMUNITY CENTER,SANTA ANA,92701,Orange,33.74907,-117.86042,Library
JEROME TEENSPACE,SANTA ANA,92704,Orange,33.73742,-117.89881,Library
NEWHOPE LIBRARY LEARNING CENTER,SANTA ANA,92703,Orange,33.74589,-117.92916,Library
ROOSEVELT-WALKER COMMUNITY CENTER,SANTA ANA,92701,Orange,33.74231,-117.8573,Library
SANTA ANA PUBLIC LIBRARY,SANTA ANA,92701,Orange,33.75114,-117.87317,Library
EASTSIDE LIBRARY,SANTA BARBARA,93103,Santa Barbara,34.42657,-119.68005,Library
MONTECITO LIBRARY,MONTECITO,93108,Santa Barbara,34.43672,-119.63348,Library
SANTA BARBARA PUBLIC LIBRARY,SANTA BARBARA,93101,Santa Barbara,34.42398,-119.70332,Library
MISSION LIBRARY FAMILY READING CENTER,SANTA CLARA,95050,Santa Clara,37.34728,-121.94487,Library
NORTHSIDE BRANCH LIBRARY,SANTA CLARA,95054,Santa Clara,37.39569,-121.94687,Library
SANTA CLARA CITY LIBRARY - CENTRAL PARK LIBRARY,SANTA CLARA,95051,Santa Clara,37.34053,-121.97357,Library
CAMPBELL LIBRARY,CAMPBELL,95008,Santa Clara,37.28824,-121.94327,Library
CUPERTINO LIBRARY,CUPERTINO,95014,Santa Clara,37.31779,-122.02896,Library
GILROY LIBRARY,GILROY,95020,Santa Clara,37.00505,-121.57281,Library
LOS ALTOS LIBRARY,LOS ALTOS,94022,Santa Clara,37.38088,-122.1133,Library
MILPITAS LIBRARY,MILPITAS,95035,Santa Clara,37.43245,-121.90651,Library
MORGAN HILL LIBRARY,MORGAN HILL,95037,Santa Clara,37.12414,-121.6628,Library
SARATOGA LIBRARY,SARATOGA,95070,Santa Clara,37.27012,-122.01511,Library
WOODLAND LIBRARY,LOS ALTOS,94024,Santa Clara,37.34427,-122.07544,Library
CANYON COUNTRY LIBRARY,SANTA CLARITA,91351,Los Angeles,34.41648,-118.45906,Library
NEWHALL LIBRARY,SANTA CLARITA,91321,Los Angeles,34.38162,-118.53028,Library
VALENCIA LIBRARY,SANTA CLARITA,91355,Los Angeles,34.4154,-118.55089,Library
APTOS BRANCH LIBRARY,APTOS,95003,Santa Cruz,36.98106,-121.90883,Library
BOULDER CREEK BRANCH LIBRARY,BOULDER CREEK,95006,Santa Cruz,37.12751,-122.12384,Library
BRANCIFORTE BRANCH LIBRARY,SANTA CRUZ,95062,Santa Cruz,36.97924,-122.00742,Library
CAPITOLA BRANCH LIBRARY,CAPITOLA,95010,Santa Cruz,36.97879498,-121.958032,Library
CENTRAL BRANCH LIBRARY,SANTA CRUZ,95060,Santa Cruz,36.97458,-122.02861,Library
FELTON BRANCH LIBRARY,FELTON,95018,Santa Cruz,37.05294,-122.07431,Library
GARFIELD PARK BRANCH LIBRARY,SANTA CRUZ,95060,Santa Cruz,36.95804,-122.03835,Library
LA SELVA BEACH BRANCH LIBRARY,LA SELVA BEACH,95076,Santa Cruz,36.93762,-121.86342,Library
LIVE OAK BRANCH LIBRARY,SANTA CRUZ,95062,Santa Cruz,36.96277,-121.98046,Library
SCOTTS VALLEY BRANCH LIBRARY,SCOTTS VALLEY,95066,Santa Cruz,37.04962,-122.02856,Library
SANTA FE SPRINGS CITY LIBRARY,SANTA FE SPRINGS,90670,Los Angeles,33.94629,-118.08372,Library
WILLIAM C. GORDON LEARNING CENTER,SANTA FE SPRINGS,90670,Los Angeles,33.95878,-118.08545,Library
CUYAMA LIBRARY,CUYAMA,93254,Santa Barbara,34.94529,-119.6828,Library
GUADALUPE LIBRARY,GUADALUPE,93434,Santa Barbara,34.95777,-120.57787,Library
LOS ALAMOS LIBRARY,LOS ALAMOS,93440,Santa Barbara,34.74063,-120.27822,Library
ORCUTT LIBRARY,ORCUTT,93455,Santa Barbara,34.86472,-120.44825,Library
SANTA MARIA PUBLIC LIBRARY,SANTA MARIA,93454,Santa Barbara,34.94857,-120.43531,Library
FAIRVIEW BRANCH LIBRARY,SANTA MONICA,90405,Los Angeles,34.01469,-118.46363,Library
MONTANA AVENUE BRANCH LIBRARY,SANTA MONICA,90403,Los Angeles,34.03453,-118.49194,Library
OCEAN PARK BRANCH LIBRARY,SANTA MONICA,90405,Los Angeles,34.00281,-118.48356,Library
PICO BRANCH LIBRARY,SANTA MONICA,90405,Los Angeles,34.02121,-118.46819,Library
SANTA MONICA PUBLIC LIBRARY,SANTA MONICA,90401,Los Angeles,34.01853,-118.49336,Library
SAUSALITO PUBLIC LIBRARY,SAUSALITO,94965,Marin,37.85965,-122.48887,Library
SHAFTER LIBRARY,SHAFTER,93263,Kern,36.90397,-120.1304,Library
ANDERSON LIBRARY,ANDERSON,96007,Shasta,40.45147,-122.30392,Library
BURNEY LIBRARY,BURNEY,96013,Shasta,40.88469,-121.66987,Library
REDDING LIBRARY,REDDING,96001,Shasta,40.57377,-122.38528,Library
SIERRA MADRE PUBLIC LIBRARY,SIERRA MADRE,91024,Los Angeles,34.16148,-118.06201,Library
SIGNAL HILL PUBLIC LIBRARY,SIGNAL HILL,90755,Los Angeles,33.79682,-118.16962,Library
SIMI VALLEY PUBLIC LIBRARY,SIMI VALLEY,93063,Ventura,34.28896,-118.71934,Library
DUNSMUIR BRANCH LIBRARY,DUNSMUIR,96025,Siskiyou,41.21172,-122.27143,Library
ETNA BRANCH LIBRARY,ETNA,96027,Siskiyou,41.45698,-122.89304,Library
FORT JONES BRANCH LIBRARY,FORT JONES,96032,Siskiyou,41.60698,-122.83961,Library
MCCLOUD BRANCH LIBRARY,MCCLOUD,96057,Siskiyou,41.25578,-122.13189,Library
MONTAGUE BRANCH LIBRARY,MONTAGUE,96064,Siskiyou,41.72775,-122.53199,Library
MT. SHASTA BRANCH LIBRARY,MT. SHASTA,96067,Siskiyou,41.31814,-122.30983,Library
SISKIYOU COUNTY FREE LIBRARY YREKA,YREKA,96097,Siskiyou,41.72667,-122.6397,Library
TULELAKE BRANCH LIBRARY,TULELAKE,96134,Siskiyou,41.95549,-121.47702,Library
WEED BRANCH LIBRARY,WEED,96094,Siskiyou,41.42708,-122.38552,Library
DIXON LIBRARY,DIXON,95620,Solano,38.44685,-121.82205,Library
FAIRFIELD CIVIC CENTER LIBRARY,FAIRFIELD,94533,Solano,38.25205,-122.04814,Library
FAIRFIELD CORDELIA LIBRARY,FAIRFIELD,94534,Solano,38.21808,-122.144,Library
JOHN F. KENNEDY LIBRARY,VALLEJO,94590,Solano,38.10169,-122.26069,Library
RIO VISTA LIBRARY,RIO VISTA,94571,Solano,38.15616,-121.69251,Library
SPRINGSTOWNE LIBRARY,VALLEJO,94591,Solano,38.10409,-122.21827,Library
SUISUN CITY LIBRARY,SUISUN CITY,94585,Solano,38.24886,-122.01,Library
VACAVILLE PUBLIC LIBRARY - CULTURAL CENTER,VACAVILLE,95687,Solano,38.35566,-121.96246,Library
VACAVILLE PUBLIC LIBRARY - TOWN SQUARE,VACAVILLE,95688,Solano,38.35738,-121.98726,Library
CENTRAL SANTA ROSA LIBRARY,SANTA ROSA,95404,Sonoma,38.44122,-122.71062,Library
CLOVERDALE REGIONAL LIBRARY,CLOVERDALE,95425,Sonoma,38.80871,-123.02002,Library
FORESTVILLE COMMUNITY LIBRARY,FORESTVILLE,95436,Sonoma,38.48158,-122.8893,Library
GUERNEVILLE REGIONAL LIBRARY,GUERNEVILLE,95446,Sonoma,38.50379,-122.99732,Library
HEALDSBURG REGIONAL LIBRARY,HEALDSBURG,95448,Sonoma,38.61444,-122.8699,Library
NORTHWEST SANTA ROSA LIBRARY,SANTA ROSA,95401,Sonoma,38.45915,-122.73093,Library
OCCIDENTAL COMMUNITY LIBRARY,OCCIDENTAL,95465,Sonoma,38.40622,-122.94739,Library
PETALUMA REGIONAL LIBRARY,PETALUMA,94952,Sonoma,38.24232,-122.63172,Library
RINCON VALLEY REGIONAL LIBRARY,SANTA ROSA,95409,Sonoma,38.47904,-122.66121,Library
ROHNERT PARK-COTATI REGIONAL LIBRARY,ROHNERT PARK,94928,Sonoma,38.34885,-122.70365,Library
ROSELAND REGIONAL LIBRARY,SANTA ROSA,95407,Sonoma,38.43034,-122.72955,Library
SEBASTOPOL REGIONAL LIBRARY`,SEBASTOPOL,95472,Sonoma,38.40207,-122.82559,Library
SONOMA COUNTY HISTORY & GENEALOGY,SANTA ROSA,95404,Sonoma,38.44127,-122.71063,Library
SONOMA VALLEY REGIONAL LIBRARY,SONOMA,95476,Sonoma,38.29296,-122.47282,Library
WINDSOR REGIONAL LIBRARY,WINDSOR,95492,Sonoma,38.54947,-122.81405,Library
SOUTH PASADENA PUBLIC LIBRARY,SOUTH PASADENA,91030,Los Angeles,34.11417,-118.15586,Library
COMMUNITY LEARNING CENTER,SOUTH SAN FRANCISCO,94080,San Mateo,37.65833,-122.41675,Library
GRAND AVENUE LIBRARY,SOUTH SAN FRANCISCO,94080,San Mateo,37.65639,-122.41394,Library
SOUTH SAN FRANCISCO MAIN LIBRARY,SOUTH SAN FRANCISCO,94080,San Mateo,37.65251,-122.43677,Library
ST. HELENA PUBLIC LIBRARY,ST. HELENA,94574,Napa,38.50785,-122.46961,Library
CERES LIBRARY,CERES,95307,Stanislaus,37.59295,-120.95495,Library
DENAIR LIBRARY,DENAIR,95316,Stanislaus,37.52747,-120.79349,Library
EMPIRE LIBRARY,EMPIRE,95319,Stanislaus,37.63752,-120.89896,Library
HUGHSON LIBRARY,HUGHSON,95326,Stanislaus,37.59602,-120.86633,Library
KEYES LIBRARY,KEYES,95328,Stanislaus,37.55352,-120.9092,Library
MODESTO LIBRARY,MODESTO,95354,Stanislaus,37.6432,-120.99355,Library
NEWMAN LIBRARY,NEWMAN,95360,Stanislaus,37.31635,-121.02771,Library
OAKDALE LIBRARY,OAKDALE,95361,Stanislaus,37.7647,-120.84877,Library
PATTERSON LIBRARY,PATTERSON,95363,Stanislaus,37.47166,-121.1317,Library
RIVERBANK LIBRARY,RIVERBANK,95367,Stanislaus,37.73565,-120.93273,Library
SALIDA LIBRARY,SALIDA,95368,Stanislaus,37.70819,-121.07848,Library
TURLOCK LIBRARY,TURLOCK,95380,Stanislaus,37.49789,-120.83946,Library
WATERFORD LIBRARY,WATERFORD,95386,Stanislaus,37.64212,-120.76092,Library
ARNOLD RUE MICRO LIBRARY,STOCKTON,95210,San Joaquin,38.01108,-121.2828,Library
ESCALON LIBRARY,ESCALON,95320,San Joaquin,37.79499,-120.99225,Library
FAIR OAKS LIBRARY,STOCKTON,95205,San Joaquin,37.95486,-121.25615,Library
LATHROP LIBRARY,LATHROP,95330,San Joaquin,37.82547,-121.30011,Library
LINDEN LIBRARY,LINDEN,95236,San Joaquin,38.02161,-121.08298,Library
MANTECA LIBRARY,MANTECA,95336,San Joaquin,37.7988,-121.21975,Library
MAYA ANGELOU LIBRARY,STOCKTON,95205,San Joaquin,37.93417,-121.24645,Library
MOUNTAIN HOUSE LIBRARY,MOUNTAIN HOUSE,95391,San Joaquin,37.77879,-121.53649,Library
RIPON LIBRARY,RIPON,95366,San Joaquin,37.73961,-121.12626,Library
CESAR CHAVEZ CENTRAL LIBRARY,STOCKTON,95202,San Joaquin,37.95887,-121.29223,Library
STRIBLEY MICRO LIBRARY,STOCKTON,95205,San Joaquin,37.95196,-121.26615,Library
THORNTON LIBRARY,THORNTON,95686,San Joaquin,38.22585,-121.4239,Library
TRACY BRANCH LIBRARY,TRACY,95376,San Joaquin,37.74262,-121.42522,Library
MARGARET TROKE LIBRARY,STOCKTON,95207,San Joaquin,38.01137,-121.31761,Library
WESTON RANCH LIBRARY,STOCKTON,95206,San Joaquin,37.89771,-121.30656,Library
VAN BUSKIRK,STOCKTON,95206,San Joaquin,37.91904,-121.2968,Library
SUNNYVALE PUBLIC LIBRARY,SUNNYVALE,94086,Santa Clara,37.37164,-122.0392,Library
BARBER BRANCH LIBRARY,LIVE OAK,95953,Sutter,39.28093,-121.66099,Library
SUTTER BRANCH LIBRARY,SUTTER,95982,Sutter,39.15904,-121.74872,Library
SUTTER COUNTY LIBRARY,YUBA CITY,95991,Sutter,39.13753,-121.62466,Library
CORNING BRANCH LIBRARY,CORNING,96021,Tehama,39.92871,-122.17991,Library
LOS MOLINOS BRANCH LIBRARY,LOS MOLINOS,96055,Tehama,40.02127,-122.10027,Library
TEHAMA COUNTY LIBRARY,RED BLUFF,96080,Tehama,40.16329,-122.22688,Library
NEWBURY PARK BRANCH LIBRARY,NEWBURY PARK,91320,Ventura,34.18179,-118.92871,Library
THOUSAND OAKS LIBRARY,THOUSAND OAKS,91362,Ventura,34.20122,-118.85267,Library
EL RETIRO BRANCH LIBRARY,REDONDO BEACH,90277,Los Angeles,33.81566,-118.37894,Library
HENDERSON BRANCH LIBRARY,TORRANCE,90503,Los Angeles,33.84156,-118.36459,Library
KATY GEISSERT CIVIC CENTER LIBRARY,TORRANCE,90503,Los Angeles,33.83781,-118.34318,Library
NORTH TORRANCE BRANCH LIBRARY,TORRANCE,90504,Los Angeles,33.87256,-118.33547,Library
SOUTHEAST BRANCH LIBRARY,TORRANCE,90501,Los Angeles,33.81535,-118.32021,Library
WALTERIA BRANCH LIBRARY,TORRANCE,90505,Los Angeles,33.80455,-118.35303,Library
HAYFORK BRANCH LIBRARY,HAYFORK,96041,Trinity,40.55283,-123.19127,Library
TRINITY CENTER BRANCH LIBRARY,TRINITY CENTER,96091,Trinity,40.9864,-122.70171,Library
TRINITY COUNTY FREE LIBRARY,WEAVERVILLE,96093,Trinity,40.73548,-122.94239,Library
ALPAUGH BRANCH LIBRARY,ALPAUGH,93201,Tulare,35.88788,-119.48686,Library
DINUBA BRANCH LIBRARY,DINUBA,93618,Tulare,36.54328,-119.38707,Library
EARLIMART LIBRARY,EARLIMART,93219,Tulare,35.88492,-119.26914,Library
EXETER LIBRARY,EXETER,93221,Tulare,36.29403,-119.13856,Library
FARMERSVILLE BRANCH LIBRARY,FARMERSVILLE,93223,Tulare,36.30206,-119.20293,Library
IVANHOE LIBRARY,IVANHOE,93235,Tulare,36.38717,-119.21789,Library
LINDSAY LIBRARY,LINDSAY,93247,Tulare,36.20357,-119.08949,Library
LONDON BRANCH LIBRARY,DINUBA,93618,Tulare,36.47698,-119.44491,Library
OROSI BRANCH LIBRARY,OROSI,93647,Tulare,36.54498,-119.29043,Library
PIXLEY LIBRARY,PIXLEY,93256,Tulare,35.96533,-119.29142,Library
SPRINGVILLE LIBRARY,SPRINGVILLE,93265,Tulare,36.13374,-118.813,Library
STRATHMORE LIBRARY,STRATHMORE,93267,Tulare,36.1465,-119.05804,Library
TERRA BELLA LIBRARY,TERRA BELLA,93270,Tulare,35.95579,-119.03967,Library
THREE RIVERS LIBRARY,THREE RIVERS,93271,Tulare,36.44222,-118.90123,Library
TIPTON LIBRARY,TIPTON,93272,Tulare,36.06079,-119.31029,Library
VISALIA BRANCH LIBRARY,VISALIA,93291,Tulare,36.33212,-119.29346,Library
WOODLAKE LIBRARY,WOODLAKE,93286,Tulare,36.4202,-119.10282,Library
TULARE PUBLIC LIBRARY,TULARE,93274,Tulare,36.21321,-119.34513,Library
GROVELAND BRANCH,GROVELAND,95321,Tuolumne,37.84045,-120.22562,Library
TUOLUMNE CITY LIBRARY,TUOLUMNE,95379,Tuolumne,37.96086,-120.2397,Library
TUOLUMNE COUNTY LIBRARY,SONORA,95370,Tuolumne,37.98257,-120.3691,Library
TWAIN HARTE LIBRARY,TWAIN HARTE,95383,Tuolumne,38.03907,-120.22545,Library
UPLAND PUBLIC LIBRARY,UPLAND,91786,San Bernardino,34.09881,-117.65031,Library
AVENUE LIBRARY,VENTURA,93001,Ventura,34.28868,-119.29845,Library
E. P. FOSTER LIBRARY,VENTURA,93001,Ventura,34.28122,-119.29085,Library
FILLMORE LIBRARY,FILLMORE,93015,Ventura,34.40463,-118.91498,Library
HILL ROAD LIBRARY,VENTURA,93003,Ventura,34.26762,-119.20642,Library
MEINERS OAKS LIBRARY,MEINERS OAKS,93023,Ventura,34.44925,-119.27781,Library
OAK PARK LIBRARY,OAK PARK,91377,Ventura,34.1805,-118.7649,Library
OAK VIEW LIBRARY,OAK VIEW,93022,Ventura,34.39968,-119.30515,Library
OJAI LIBRARY,OJAI,93023,Ventura,34.44739,-119.24669,Library
PIRU LIBRARY,PIRU,93040,Ventura,34.41562,-118.79802,Library
RAY D. PRUETER - PORT HUENEME LIBRARY,PORT HUENEME,93041,Ventura,34.15676,-119.19294,Library
SATICOY LIBRARY,VENTURA,93004,Ventura,34.28357,-119.1481,Library
SOLIZ LIBRARY,OXNARD,93036,Ventura,34.2371,-119.16825,Library
MUSEUM OF VENTURA COUNTY RESEARCH LIBRARY,VENTURA,93001,Ventura,34.28066,-119.29931,Library
VICTORVILLE CITY LIBRARY,VICTORVILLE,92395,San Bernardino,34.52315,-117.30357,Library
FREEDOM BRANCH LIBRARY,FREEDOM,95019,Santa Cruz,36.93796,-121.77782,Library
WATSONVILLE MAIN LIBRARY,WATSONVILLE,95076,Santa Cruz,36.90854,-121.75563,Library
TRANSIT DEPOT,WHITTIER,90602,Los Angeles,33.97455599,-118.0378819,Library
WHITTIER PUBLIC LIBRARY,WHITTIER,90602,Los Angeles,33.97419306,-118.0345863,Library
WHITTWOOD BRANCH LIBRARY,WHITTIER,90603,Los Angeles,33.93982,-117.99359,Library
BAYLISS BRANCH LIBRARY,GLENN,95943,Glenn,39.58279,-122.04674,Library
ELK CREEK BRANCH LIBRARY,ELK CREEK,95939,Glenn,39.60709,-122.53888,Library
WILLOWS PUBLIC LIBRARY,WILLOWS,95988,Glenn,39.52188,-122.20006,Library
WOODLAND PUBLIC LIBRARY,WOODLAND,95695,Yolo,38.67924,-121.77382,Library
A. F. TURNER COMMUNITY LIBRARY,WEST SACRAMENTO,95691,Yolo,38.58022,-121.52335,Library
CLARKSBURG BRANCH LIBRARY,CLARKSBURG,95612,Yolo,38.41614,-121.52655,Library
MARY L. STEPHENS DAVIS BRANCH LIBRARY,DAVIS,95616,Yolo,38.55685,-121.74706,Library
ESPARTO REGIONAL LIBRARY,ESPARTO,95627,Yolo,38.69249,-122.0163,Library
KNIGHTS LANDING BRANCH LIBRARY,KNIGHTS LANDING,95645,Yolo,38.8003,-121.71792,Library
WINTERS COMMUNITY LIBRARY,WINTERS,95694,Yolo,38.52565,-121.97153,Library
YOLO BRANCH LIBRARY,YOLO,95697,Yolo,38.73321,-121.80744,Library
YORBA LINDA PUBLIC LIBRARY,YORBA LINDA,92886,Orange,33.89108,-117.81512,Library
YUBA COUNTY LIBRARY,MARYSVILLE,95901,Yuba,39.13765,-121.58757,Library
